[

   {"state_id":"1","state_name":"Tunis",
   "city":[
    {"city_id":"1","city_name":"EL MENZAH","state_id":"1",
   "localite":[
   {"localite_id":"1","localite_name":"CITE CARAVELLES","code_postal":"1082","city_id":"1"},
   {"localite_id":"2","localite_name":"CITE EL MAHRAJENE","code_postal":"1082","city_id":"1"},
   {"localite_id":"3","localite_name":"CITE SNIT","code_postal":"1082","city_id":"1"},
   {"localite_id":"4","localite_name":"EL MENZAH 9","code_postal":"1013","city_id":"1"},
   {"localite_id":"5","localite_name":"EL MENZAH 1","code_postal":"1004","city_id":"1"},
   {"localite_id":"6","localite_name":"EL MENZAH 2","code_postal":"1082","city_id":"1"},
   {"localite_id":"7","localite_name":"EL MENZAH 3","code_postal":"1082","city_id":"1"},
   {"localite_id":"8","localite_name":"EL MENZAH 4","code_postal":"1082","city_id":"1"},
   {"localite_id":"9","localite_name":"MUTUELLE VILLE","code_postal":"1082","city_id":"1"},
   {"localite_id":"10","localite_name":"CITE DES MEDECINS","code_postal":"2092","city_id":"1"},
   {"localite_id":"11","localite_name":"CITE DU PARADIS","code_postal":"2092","city_id":"1"},
   {"localite_id":"12","localite_name":"CITE FAIZA","code_postal":"2092","city_id":"1"},
   {"localite_id":"13","localite_name":"CITE SABA","code_postal":"2092","city_id":"1"},
   {"localite_id":"14","localite_name":"EL MANAR 2","code_postal":"2092","city_id":"1"},
   {"localite_id":"15","localite_name":"TUNIS BELVEDERE","code_postal":"1002","city_id":"1"}
   
   
   
   
   
   ]},
    {"city_id":"2","city_name":"EL HRAIRIA","state_id":"1",
    "localite":[
    {"localite_id":"16","localite_name":"EZZOUHOUR 5","code_postal":"2052","city_id":"2"},
    {"localite_id":"17","localite_name":"CITE EL MECHTEL","code_postal":"2087","city_id":"2"},
    {"localite_id":"18","localite_name":"CITE HWAS","code_postal":"2087","city_id":"2"},
    {"localite_id":"19","localite_name":"EL HRAIRIA","code_postal":"2087","city_id":"2"},
    {"localite_id":"20","localite_name":"EZZAHROUNI","code_postal":"2051","city_id":"2"},
    {"localite_id":"21","localite_name":"CITE JLAS","code_postal":"2051","city_id":"2"},
    {"localite_id":"22","localite_name":"CITE MEDJERDA","code_postal":"2051","city_id":"2"},
    {"localite_id":"23","localite_name":"CITE BOUZAIENE","code_postal":"2052","city_id":"2"},
    {"localite_id":"24","localite_name":"CITE BOUGATFA 1","code_postal":"2051","city_id":"2"},
    {"localite_id":"25","localite_name":"CITE ERRACHIDIA","code_postal":"2051","city_id":"2"},
    {"localite_id":"26","localite_name":"CITE ESSALAMA","code_postal":"2051","city_id":"2"},
    {"localite_id":"27","localite_name":"CITE ESSOLTANI","code_postal":"2051","city_id":"2"}
   ]},
    {"city_id":"3","city_name":"EL KABBARIA","state_id":"1",
    "localite":[
    {"localite_id":"28","localite_name":"EL MOUROUJ 2","code_postal":"1074","city_id":"3"},
    {"localite_id":"29","localite_name":"CITE BOU HJAR","code_postal":"2053","city_id":"3"},
    {"localite_id":"30","localite_name":"CITE ENNOUR","code_postal":"2053","city_id":"3"},
    {"localite_id":"31","localite_name":"EL KABBARIA 1","code_postal":"2053","city_id":"3"},
    {"localite_id":"32","localite_name":"EL KABBARIA 2","code_postal":"2053","city_id":"3"},
    {"localite_id":"33","localite_name":"EL KABBARIA 3","code_postal":"2053","city_id":"3"},
    {"localite_id":"34","localite_name":"EL KABBARIA 4","code_postal":"2053","city_id":"3"},
    {"localite_id":"35","localite_name":"EL OUERDIA 4","code_postal":"2053","city_id":"3"},
    {"localite_id":"36","localite_name":"IBN SINA","code_postal":"2066","city_id":"3"}
   ]},
    {"city_id":"4","city_name":"EL KRAM","state_id":"1",
    "localite":[
    {"localite_id":"37","localite_name":"ERRIADH","code_postal":"2015","city_id":"4"},
    {"localite_id":"38","localite_name":"LE KRAM","code_postal":"2015","city_id":"4"},
    {"localite_id":"39","localite_name":"LE KRAM EST","code_postal":"2015","city_id":"4"},
    {"localite_id":"40","localite_name":"BIR EL HLOU","code_postal":"2089","city_id":"4"},
    {"localite_id":"41","localite_name":"LE KRAM OUEST","code_postal":"2089","city_id":"4"},
    {"localite_id":"42","localite_name":"SIDI AMOR","code_postal":"2089","city_id":"4"}
   ]},
    {"city_id":"5","city_name":"Bab Souika","state_id":"1",
    "localite":[
    {"localite_id":"37","localite_name":"HAMMAM EL REMIMI","code_postal":"1006","city_id":"5"},
    {"localite_id":"38","localite_name":"SIDI DJEBELI","code_postal":"1006","city_id":"5"},
    {"localite_id":"39","localite_name":"TRONJA","code_postal":"1006","city_id":"5"},
    {"localite_id":"40","localite_name":"ZAOUIET EL BAKRIA","code_postal":"1006","city_id":"5"},
    {"localite_id":"41","localite_name":"BAB SAADOUN","code_postal":"1029","city_id":"5"},
    {"localite_id":"42","localite_name":"BAB EL KHADRA","code_postal":"1075","city_id":"5"},
    {"localite_id":"40","localite_name":"EL HALFAOUINE","code_postal":"1006","city_id":"5"},
    {"localite_id":"41","localite_name":"BAB SOUIKA","code_postal":"1006","city_id":"5"},
    {"localite_id":"42","localite_name":"BORJ ZOUARA","code_postal":"1006","city_id":"5"},
    {"localite_id":"42","localite_name":"BAB EL AKOUES","code_postal":"1006","city_id":"5"},
    {"localite_id":"40","localite_name":"BAB EL ALOUJ","code_postal":"1006","city_id":"5"},
    {"localite_id":"41","localite_name":"BAB EL ASSEL","code_postal":"1006","city_id":"5"},
    {"localite_id":"42","localite_name":"BAB SIDI ABDESSALEM","code_postal":"1006","city_id":"5"}
   ]},
    {"city_id":"6","city_name":"CARTHAGE","state_id":"1",
    "localite":[
    {"localite_id":"43","localite_name":"AMILCAR","code_postal":"1054","city_id":"6"},
    {"localite_id":"44","localite_name":"CARTAGE BYRSA","code_postal":"2016","city_id":"6"},
    {"localite_id":"45","localite_name":"CARTAGE PLAGE","code_postal":"2016","city_id":"6"},
    {"localite_id":"46","localite_name":"CARTHAGE","code_postal":"2016","city_id":"6"},
    {"localite_id":"47","localite_name":"CITE DE LA STEG","code_postal":"2016","city_id":"6"},
    {"localite_id":"48","localite_name":"CITE MOHAMED ALI","code_postal":"2016","city_id":"6"},
    {"localite_id":"49","localite_name":"SALAMBO","code_postal":"2025","city_id":"6"},
    {"localite_id":"50","localite_name":"SIDI BOUSAID","code_postal":"2026","city_id":"6"},
    {"localite_id":"51","localite_name":"EL YASMINA","code_postal":"2085","city_id":"6"}
   ]},
    {"city_id":"7","city_name":"CITE EL KHADRA","state_id":"1",
    "localite":[
    {"localite_id":"52","localite_name":"CITE JARDINS","code_postal":"1002","city_id":"7"},
    {"localite_id":"53","localite_name":"KHEIREDDINE PACHA","code_postal":"1002","city_id":"7"},
    {"localite_id":"54","localite_name":"CITE EL KHADRA","code_postal":"1003","city_id":"7"},
    {"localite_id":"55","localite_name":"CITE EL WAFA","code_postal":"1003","city_id":"7"},
    {"localite_id":"56","localite_name":"CITE OLYMPEADE","code_postal":"1003","city_id":"7"},
    {"localite_id":"57","localite_name":"CITE OPLYMPIQUE","code_postal":"1003","city_id":"7"},
    {"localite_id":"58","localite_name":"CITE STAR","code_postal":"1003","city_id":"7"},
    {"localite_id":"59","localite_name":"EL CHARGUIA","code_postal":"2035","city_id":"7"}
   ]},
    {"city_id":"8","city_name":"BAB BHAR","state_id":"1",
    "localite":[
    {"localite_id":"60","localite_name":"BAB BHAR","code_postal":"1000","city_id":"8"},
    {"localite_id":"61","localite_name":"BAB EL JAZIRA","code_postal":"1000","city_id":"8"},
    {"localite_id":"62","localite_name":"SIDI BAHRI","code_postal":"1000","city_id":"8"},
    {"localite_id":"63","localite_name":"REPUBLIQUE","code_postal":"1001","city_id":"8"},
    {"localite_id":"64","localite_name":"HEDI CHAKER","code_postal":"1002","city_id":"8"},
    {"localite_id":"65","localite_name":"TAIEB EL M'HIRI","code_postal":"1002","city_id":"8"},
    {"localite_id":"66","localite_name":"HABIB THAMEUR","code_postal":"1069","city_id":"8"},
    {"localite_id":"67","localite_name":"MONTPLAISIR","code_postal":"1073","city_id":"8"}
   ]},
    {"city_id":"9","city_name":"LA MARSA","state_id":"1",
    "localite":[
    {"localite_id":"68","localite_name":"CITE EL FATEH","code_postal":"2076","city_id":"9"},
    {"localite_id":"69","localite_name":"CITE EL KHALIL","code_postal":"2076","city_id":"9"},
    {"localite_id":"70","localite_name":"CITE EL OUNS","code_postal":"2076","city_id":"9"},
    {"localite_id":"71","localite_name":"CITE ERRIADH","code_postal":"2076","city_id":"9"},
    {"localite_id":"72","localite_name":"CITE ESSALAMA","code_postal":"2076","city_id":"9"},
    {"localite_id":"73","localite_name":"CITE ESSIRENE","code_postal":"2076","city_id":"9"},
    {"localite_id":"74","localite_name":"MARSA ERRIADH","code_postal":"2076","city_id":"9"},
    {"localite_id":"75","localite_name":"CITE AFH","code_postal":"2078","city_id":"9"},
    {"localite_id":"76","localite_name":"CITE BEN CHAABANE","code_postal":"2078","city_id":"9"},
    {"localite_id":"77","localite_name":"CITE DES VERGERS","code_postal":"2078","city_id":"9"},
    {"localite_id":"78","localite_name":"CITE DU STADE","code_postal":"2078","city_id":"9"},
    {"localite_id":"79","localite_name":"CITE EL AHMADI","code_postal":"2078","city_id":"9"},
    {"localite_id":"80","localite_name":"CITE EL HANA","code_postal":"2078","city_id":"9"},
    {"localite_id":"81","localite_name":"CITE EL MOEZ","code_postal":"2078","city_id":"9"},
    {"localite_id":"82","localite_name":"CITE EL MOUSTAKBEL (LA MARSA)","code_postal":"2078","city_id":"9"},
    {"localite_id":"83","localite_name":"CITE EL MOUSTAKBEL (SIDI DAOUD)","code_postal":"2078","city_id":"9"},
    {"localite_id":"84","localite_name":"CITE MALHATLI","code_postal":"2078","city_id":"9"},
    {"localite_id":"85","localite_name":"CITE RIMILA 1","code_postal":"2078","city_id":"9"},
    {"localite_id":"86","localite_name":"CITE RIMILA 2","code_postal":"2078","city_id":"9"},
    {"localite_id":"87","localite_name":"BERGE DU LAC","code_postal":"1053","city_id":"9"},
    {"localite_id":"88","localite_name":"GAMMART","code_postal":"1057","city_id":"9"},
    {"localite_id":"89","localite_name":"CITE EL MHIRI","code_postal":"2045","city_id":"9"},
    {"localite_id":"90","localite_name":"CITE SPROLS","code_postal":"2045","city_id":"9"},
    {"localite_id":"91","localite_name":"CITE AZIZA","code_postal":"2046","city_id":"9"},
    {"localite_id":"92","localite_name":"CITE BHAR LAZREG","code_postal":"2046","city_id":"9"},
    {"localite_id":"93","localite_name":"CITE DES MIMOSAS","code_postal":"2076","city_id":"9"},
    {"localite_id":"94","localite_name":"CITE MONGI SLIM","code_postal":"2046","city_id":"9"},
    {"localite_id":"95","localite_name":"SIDI DAOUD","code_postal":"2046","city_id":"9"},
    {"localite_id":"96","localite_name":"CITE BORJ EL KOUKI","code_postal":"2076","city_id":"9"},
    {"localite_id":"97","localite_name":"CITE DE LA TELEDIFFUSION 1","code_postal":"2076","city_id":"9"},
    {"localite_id":"98","localite_name":"CITE DE LA TELEDIFFUSION 2","code_postal":"2076","city_id":"9"},
    {"localite_id":"99","localite_name":"CITE DES JUGES 2","code_postal":"2076","city_id":"9"},
    {"localite_id":"100","localite_name":"MARSA SAFSAF","code_postal":"2078","city_id":"9"}
   ]},
    {"city_id":"259","city_name":"EZZOUHOUR","state_id":"1",
    "localite":[
    {"localite_id":"101","localite_name":"EZZOUHOUR 4","code_postal":"2052","city_id":"259"},
    {"localite_id":"102","localite_name":"CITE DES OFFICIERS","code_postal":"2052","city_id":"259"},
    {"localite_id":"103","localite_name":"CITE ESSAADA","code_postal":"2052","city_id":"259"},
    {"localite_id":"104","localite_name":"CITE ESSOMRANE","code_postal":"2052","city_id":"259"},
    {"localite_id":"105","localite_name":"CITE EZZOUHOUR","code_postal":"2052","city_id":"259"}
   ]},
    {"city_id":"260","city_name":"JEBEL JELLOUD","state_id":"1",
    "localite":[
    {"localite_id":"106","localite_name":"ALI BACH-HAMBA","code_postal":"1046","city_id":"260"},
    {"localite_id":"107","localite_name":"EL GARJOUMA","code_postal":"1046","city_id":"260"},
    {"localite_id":"108","localite_name":"EL SEBKHA","code_postal":"1046","city_id":"260"},
    {"localite_id":"109","localite_name":"JEBEL JELLOUD","code_postal":"1046","city_id":"260"},
    {"localite_id":"110","localite_name":"CITE THAMEUR","code_postal":"2023","city_id":"260"},
    {"localite_id":"111","localite_name":"EL AFRANE","code_postal":"2023","city_id":"260"},
    {"localite_id":"112","localite_name":"SIDI FATHALLAH","code_postal":"2023","city_id":"260"}
   ]},
    {"city_id":"10","city_name":"SIDI EL BECHIR","state_id":"1",
    "localite":[
    {"localite_id":"113","localite_name":"SIDI EL BECHIR","code_postal":"1089","city_id":"10"},
    {"localite_id":"114","localite_name":"SIDI MANSOUR","code_postal":"1089","city_id":"10"},
    {"localite_id":"115","localite_name":"BAB EL FALLA","code_postal":"1027","city_id":"10"},
    {"localite_id":"116","localite_name":"ABOU EL KACEM CHEBBI","code_postal":"1089","city_id":"10"},
    {"localite_id":"117","localite_name":"BAB ALIOUA","code_postal":"1089","city_id":"10"},
    {"localite_id":"118","localite_name":"EL GOURJANI","code_postal":"1089","city_id":"10"},
    {"localite_id":"119","localite_name":"ESSAIDA MANNOUBIA","code_postal":"1089","city_id":"10"},
    {"localite_id":"120","localite_name":"MAAKEL EZZA","code_postal":"1008","city_id":"10"},
    {"localite_id":"121","localite_name":"MONFLEURY","code_postal":"1089","city_id":"10"}
   ]},
    {"city_id":"11","city_name":"LA GOULETTE","state_id":"1",
    "localite":[
    {"localite_id":"122","localite_name":"LA GOULETTE PORT","code_postal":"1067","city_id":"11"},
    {"localite_id":"123","localite_name":"CASINO LA GOULETTE","code_postal":"2060","city_id":"11"},
    {"localite_id":"124","localite_name":"CITE ENNACIM LA BRISE","code_postal":"2060","city_id":"11"},
    {"localite_id":"125","localite_name":"EL BATTAH","code_postal":"2060","city_id":"11"},
    {"localite_id":"126","localite_name":"KHEIREDDINE","code_postal":"2060","city_id":"11"},
    {"localite_id":"127","localite_name":"LA GOULETTE","code_postal":"2060","city_id":"11"},
    {"localite_id":"128","localite_name":"LA GOULETTE NOUVELLE","code_postal":"2060","city_id":"11"},
    {"localite_id":"129","localite_name":"CITE EL MECHTEL","code_postal":"2089","city_id":"11"}
   ]},
    {"city_id":"12","city_name":"LE BARDO","state_id":"1",
    "localite":[
    {"localite_id":"130","localite_name":"LE BARDO","code_postal":"2000","city_id":"12"},
    {"localite_id":"131","localite_name":"BORTAL HAYDER","code_postal":"2009","city_id":"12"},
    {"localite_id":"132","localite_name":"KSAR SAID","code_postal":"2009","city_id":"12"},
    {"localite_id":"133","localite_name":"CITE DES ENSEIGNANTS","code_postal":"2017","city_id":"12"},
    {"localite_id":"134","localite_name":"CITE STAR","code_postal":"2017","city_id":"12"},
    {"localite_id":"135","localite_name":"KHAZNADAR","code_postal":"2017","city_id":"12"},
    {"localite_id":"136","localite_name":"BOUCHOUCHA","code_postal":"2000","city_id":"12"},
    {"localite_id":"137","localite_name":"CITE ALTEN","code_postal":"2000","city_id":"12"},
    {"localite_id":"138","localite_name":"CITE DU STADE","code_postal":"2000","city_id":"12"}
   ]},
    {"city_id":"13","city_name":"EL OMRANE","state_id":"1",
    "localite":[
    {"localite_id":"139","localite_name":"BAB SAADOUN GARE","code_postal":"1029","city_id":"13"},
    {"localite_id":"140","localite_name":"RAS TABIA","code_postal":"2000","city_id":"13"},
    {"localite_id":"141","localite_name":"BIR ATIG","code_postal":"1005","city_id":"13"},
    {"localite_id":"142","localite_name":"CITE CENTRALE","code_postal":"1005","city_id":"13"},
    {"localite_id":"143","localite_name":"CITE DES OLIVIERS","code_postal":"1005","city_id":"13"},
    {"localite_id":"144","localite_name":"CITE EL HABIB","code_postal":"1005","city_id":"13"},
    {"localite_id":"145","localite_name":"CITE MILITAIRE","code_postal":"1005","city_id":"13"},
    {"localite_id":"146","localite_name":"DJBAL EL AHMAR","code_postal":"1005","city_id":"13"},
    {"localite_id":"147","localite_name":"EL OMRANE","code_postal":"1005","city_id":"13"},
    {"localite_id":"148","localite_name":"OUED EL SEBAI","code_postal":"1005","city_id":"13"}
   ]},
    {"city_id":"261","city_name":"EL OMRANE SUPERIEUR","state_id":"1",
    "localite":[
    {"localite_id":"149","localite_name":"CITE EL INTILAKA","code_postal":"1064","city_id":"261"},
    {"localite_id":"150","localite_name":"EL NASSIM","code_postal":"1064","city_id":"261"},
    {"localite_id":"151","localite_name":"ROMMANA","code_postal":"1068","city_id":"261"},
    {"localite_id":"152","localite_name":"EL OMRANE SUPERIEUR","code_postal":"1091","city_id":"261"},
    {"localite_id":"153","localite_name":"CITE IBN KHALDOUN I","code_postal":"2062","city_id":"261"},
    {"localite_id":"154","localite_name":"CITE IBN KHALDOUN VI","code_postal":"2062","city_id":"261"}
   ]},
    {"city_id":"14","city_name":"EL OUERDIA","state_id":"1",
    "localite":[
    {"localite_id":"155","localite_name":"BELLEVUE","code_postal":"1009","city_id":"14"},
    {"localite_id":"156","localite_name":"BORJ ALI ERRAIS","code_postal":"1009","city_id":"14"},
    {"localite_id":"157","localite_name":"CITE EL IZDIHAR","code_postal":"1009","city_id":"14"},
    {"localite_id":"158","localite_name":"CITE MOHAMED ALI","code_postal":"1009","city_id":"14"},
    {"localite_id":"159","localite_name":"DIBOUZVILLE","code_postal":"1009","city_id":"14"},
    {"localite_id":"160","localite_name":"EL OUERDIA","code_postal":"1009","city_id":"14"},
    {"localite_id":"161","localite_name":"LAKAGNIA","code_postal":"1009","city_id":"14"},
    {"localite_id":"162","localite_name":"LES MARTYRS","code_postal":"1009","city_id":"14"},
    {"localite_id":"163","localite_name":"MATHUL DE VILLE","code_postal":"1009","city_id":"14"},
    {"localite_id":"164","localite_name":"MONHOMME","code_postal":"1009","city_id":"14"}
   ]},
    {"city_id":"15","city_name":"ETTAHRIR","state_id":"1",
    "localite":[
    {"localite_id":"165","localite_name":"CITE EL FERDAOUS","code_postal":"2042","city_id":"15"},
    {"localite_id":"166","localite_name":"CITE ESSADIK","code_postal":"2042","city_id":"15"},
    {"localite_id":"167","localite_name":"CITE ETTAHRIR SUP","code_postal":"2042","city_id":"15"},
    {"localite_id":"168","localite_name":"ETTAHRIR 1","code_postal":"2042","city_id":"15"},
    {"localite_id":"169","localite_name":"ETTAHRIR 2","code_postal":"2042","city_id":"15"},
    {"localite_id":"170","localite_name":"ETTAHRIR 3","code_postal":"2042","city_id":"15"},
    {"localite_id":"171","localite_name":"CITE DU JARDIN","code_postal":"2042","city_id":"15"}
   ]},
    {"city_id":"16","city_name":"SIDI HASSINE","state_id":"1",
    "localite":[
    {"localite_id":"172","localite_name":"JAYARA","code_postal":"1095","city_id":"16"},
    {"localite_id":"173","localite_name":"SIDI HASSINE","code_postal":"1095","city_id":"16"},
    {"localite_id":"174","localite_name":"CITE 25 JUILLET","code_postal":"1095","city_id":"16"},
    {"localite_id":"175","localite_name":"CITE MRAD 2","code_postal":"1095","city_id":"16"},
    {"localite_id":"176","localite_name":"CITE 7 NOVEMBRE","code_postal":"1095","city_id":"16"},
    {"localite_id":"177","localite_name":"CITE EL BETTOUMI","code_postal":"1095","city_id":"16"},
    {"localite_id":"178","localite_name":"CITE EL GAAFOURI","code_postal":"1095","city_id":"16"},
    {"localite_id":"179","localite_name":"BIRINE","code_postal":"1095","city_id":"16"},
    {"localite_id":"180","localite_name":"CITE EL MESTIRI","code_postal":"1095","city_id":"16"},
    {"localite_id":"181","localite_name":"BORJ CHAKIR","code_postal":"1095","city_id":"16"},
    {"localite_id":"182","localite_name":"CITE MOHAMED ALI","code_postal":"1095","city_id":"16"},
    {"localite_id":"183","localite_name":"CITE MRAD 1","code_postal":"1095","city_id":"16"}
   ]},
    {"city_id":"17","city_name":"ESSIJOUMI","state_id":"1",
    "localite":[
    {"localite_id":"184","localite_name":"EL MELLASSINE","code_postal":"1007","city_id":"17"},
    {"localite_id":"185","localite_name":"CITE HELAL","code_postal":"2072","city_id":"17"}
   ]},
    {"city_id":"18","city_name":"LA MEDINA","state_id":"1",
    "localite":[
    {"localite_id":"186","localite_name":"EL MEDINA","code_postal":"1000","city_id":"18"},
    {"localite_id":"187","localite_name":"EL SABAGHINE","code_postal":"1000","city_id":"18"},
    {"localite_id":"188","localite_name":"SIDI BOUMENDIL","code_postal":"1000","city_id":"18"},
    {"localite_id":"189","localite_name":"EL TAOUFIK","code_postal":"1006","city_id":"18"},
    {"localite_id":"190","localite_name":"SOUK NEL NHES","code_postal":"1006","city_id":"18"},
    {"localite_id":"191","localite_name":"BAB DJEDID","code_postal":"1008","city_id":"18"},
    {"localite_id":"192","localite_name":"BAB MENARA","code_postal":"1008","city_id":"18"},
    {"localite_id":"193","localite_name":"EL ZRARIA","code_postal":"1008","city_id":"18"},
    {"localite_id":"194","localite_name":"SIDI ALI AZOUZ","code_postal":"1008","city_id":"18"},
    {"localite_id":"195","localite_name":"TOURBET EL BEY","code_postal":"1008","city_id":"18"},
    {"localite_id":"196","localite_name":"BAB BNET","code_postal":"1019","city_id":"18"},
    {"localite_id":"197","localite_name":"EL HAFSIA","code_postal":"1059","city_id":"18"}
   ]}
 ]},
   {"state_id":"2","state_name":"Ariana",
   "city":[
    {"city_id":"19","city_name":"RAOUED","state_id":"2",
    "localite":[
    {"localite_id":"198","localite_name":"BOU HNECH","code_postal":"2081","city_id":"19"},
    {"localite_id":"199","localite_name":"CITE CHAKER","code_postal":"2081","city_id":"19"},
    {"localite_id":"200","localite_name":"CITE DE LA MOSQUE","code_postal":"2081","city_id":"19"},
    {"localite_id":"201","localite_name":"CITE EL MOUAOUIET","code_postal":"2081","city_id":"19"},
    {"localite_id":"202","localite_name":"CITE EL MOUNTAZEH","code_postal":"2081","city_id":"19"},
    {"localite_id":"203","localite_name":"CITE ENNOUR JAAFAR","code_postal":"2081","city_id":"19"},
    {"localite_id":"204","localite_name":"CITE ERRIADH","code_postal":"2081","city_id":"19"},
    {"localite_id":"205","localite_name":"CITE ESSAADA","code_postal":"2081","city_id":"19"},
    {"localite_id":"206","localite_name":"CITE SIDI SLIMENE","code_postal":"2081","city_id":"19"},
    {"localite_id":"207","localite_name":"CITE SNIT","code_postal":"2081","city_id":"19"},
    {"localite_id":"208","localite_name":"DOUAR EL HENDI","code_postal":"2081","city_id":"19"},
    {"localite_id":"209","localite_name":"EL HESSIENE","code_postal":"2081","city_id":"19"},
    {"localite_id":"210","localite_name":"OUED EL KHAYAT","code_postal":"2081","city_id":"19"},
    {"localite_id":"211","localite_name":"OUED EL MAKHZEN","code_postal":"2081","city_id":"19"},
    {"localite_id":"212","localite_name":"RESIDENCE EL AYECH","code_postal":"2081","city_id":"19"},
    {"localite_id":"213","localite_name":"RESIDENCE EL OUNS","code_postal":"2081","city_id":"19"},
    {"localite_id":"214","localite_name":"RESIDENCE ENNARJES","code_postal":"2081","city_id":"19"},
    {"localite_id":"215","localite_name":"CITE CHARGUI","code_postal":"2056","city_id":"19"},
    {"localite_id":"216","localite_name":"CITE DES JUGES","code_postal":"2056","city_id":"19"},
    {"localite_id":"217","localite_name":"CITE EL YAMAMA","code_postal":"2056","city_id":"19"},
    {"localite_id":"218","localite_name":"CITE SIDI SALAH","code_postal":"2056","city_id":"19"},
    {"localite_id":"219","localite_name":"CITE ZGHAB","code_postal":"2056","city_id":"19"},
    {"localite_id":"220","localite_name":"EL BRARJA","code_postal":"2056","city_id":"19"},
    {"localite_id":"221","localite_name":"RAOUED","code_postal":"2056","city_id":"19"},
    {"localite_id":"222","localite_name":"JAAFAR 1","code_postal":"2083","city_id":"19"},
    {"localite_id":"223","localite_name":"ARIANA ESSOUGHRA","code_postal":"2056","city_id":"19"},
    {"localite_id":"224","localite_name":"COMPLEXE TECHNOLOGIQUE","code_postal":"2088","city_id":"19"},
    {"localite_id":"225","localite_name":"BORJ TOUIL","code_postal":"2081","city_id":"19"},
    {"localite_id":"226","localite_name":"RESIDENCE ESSALEM","code_postal":"2081","city_id":"19"},
    {"localite_id":"227","localite_name":"RESIDENCE RIM","code_postal":"2081","city_id":"19"},
    {"localite_id":"228","localite_name":"ROUTE EZZAOUIA","code_postal":"2081","city_id":"19"},
    {"localite_id":"229","localite_name":"CITE DE LA RTT 2","code_postal":"2083","city_id":"19"},
    {"localite_id":"230","localite_name":"CITE EL ABADLA","code_postal":"2083","city_id":"19"},
    {"localite_id":"231","localite_name":"CITE EL AMEL","code_postal":"2083","city_id":"19"},
    {"localite_id":"232","localite_name":"CITE EL GHAZALA 1","code_postal":"2083","city_id":"19"},
    {"localite_id":"233","localite_name":"CITE EL GHAZALA 2","code_postal":"2083","city_id":"19"},
    {"localite_id":"234","localite_name":"CITE EL WAFA","code_postal":"2083","city_id":"19"},
    {"localite_id":"235","localite_name":"CITE ENNASR","code_postal":"2083","city_id":"19"},
    {"localite_id":"236","localite_name":"CITE ENNKHILET","code_postal":"2083","city_id":"19"},
    {"localite_id":"237","localite_name":"CITE ESSAHAFA","code_postal":"2083","city_id":"19"},
    {"localite_id":"238","localite_name":"CITE IBN RACHIK","code_postal":"2083","city_id":"19"},
    {"localite_id":"239","localite_name":"CITE MEHRZIA 2","code_postal":"2083","city_id":"19"},
    {"localite_id":"240","localite_name":"JAAFAR 2","code_postal":"2083","city_id":"19"},
    {"localite_id":"241","localite_name":"CITE 7 NOVEMBRE","code_postal":"2056","city_id":"19"},
    {"localite_id":"242","localite_name":"CITE AEROPORT","code_postal":"2056","city_id":"19"}
   ]},
    {"city_id":"20","city_name":"SIDI THABET","state_id":"2",
    "localite":[
    {"localite_id":"243","localite_name":"CITE DES ORANGES","code_postal":"2020","city_id":"20"},
    {"localite_id":"244","localite_name":"CITE EL GOUAZINE","code_postal":"2020","city_id":"20"},
    {"localite_id":"245","localite_name":"CITE EL MBARKA","code_postal":"2020","city_id":"20"},
    {"localite_id":"246","localite_name":"CITE EL MREZGUA","code_postal":"2020","city_id":"20"},
    {"localite_id":"247","localite_name":"CITE ESSAADA","code_postal":"2020","city_id":"20"},
    {"localite_id":"248","localite_name":"CITE ETTBAIEB","code_postal":"2020","city_id":"20"},
    {"localite_id":"249","localite_name":"CITE JARDINS","code_postal":"2020","city_id":"20"},
    {"localite_id":"250","localite_name":"CITE MONGI SLIM","code_postal":"2020","city_id":"20"},
    {"localite_id":"251","localite_name":"SIDI THABET","code_postal":"2020","city_id":"20"},
    {"localite_id":"252","localite_name":"BORJ EL KHOUKHA","code_postal":"2032","city_id":"20"},
    {"localite_id":"253","localite_name":"BORJ YOUSSEF","code_postal":"2032","city_id":"20"},
    {"localite_id":"254","localite_name":"CEBALET BEN AMMAR","code_postal":"2032","city_id":"20"},
    {"localite_id":"255","localite_name":"CHORFECH 12","code_postal":"2032","city_id":"20"},
    {"localite_id":"256","localite_name":"CITE DRIDI","code_postal":"2032","city_id":"20"},
    {"localite_id":"257","localite_name":"CITE EL BOKRI","code_postal":"2032","city_id":"20"},
    {"localite_id":"258","localite_name":"CITE EL FRACHICH","code_postal":"2032","city_id":"20"},
    {"localite_id":"259","localite_name":"CITE EL GHRIBI","code_postal":"2032","city_id":"20"},
    {"localite_id":"260","localite_name":"CITE EL METHALITHE","code_postal":"2032","city_id":"20"},
    {"localite_id":"261","localite_name":"CITE MESSOUDA","code_postal":"2032","city_id":"20"},
    {"localite_id":"262","localite_name":"CITE OUVRIERE","code_postal":"2032","city_id":"20"},
    {"localite_id":"263","localite_name":"CITE SIDI MAROUANE","code_postal":"2032","city_id":"20"},
    {"localite_id":"264","localite_name":"EZZAOUIA","code_postal":"2032","city_id":"20"},
    {"localite_id":"265","localite_name":"JABBES","code_postal":"2032","city_id":"20"},
    {"localite_id":"266","localite_name":"JABBES EL BORJ","code_postal":"2032","city_id":"20"},
    {"localite_id":"267","localite_name":"CHORFECH","code_postal":"2057","city_id":"20"},
    {"localite_id":"268","localite_name":"CHORFECH 2","code_postal":"2057","city_id":"20"},
    {"localite_id":"269","localite_name":"CHORFECH 24","code_postal":"2057","city_id":"20"},
    {"localite_id":"270","localite_name":"CHORFECH 8","code_postal":"2057","city_id":"20"},
    {"localite_id":"271","localite_name":"CITE DES AGRICULTEURS","code_postal":"2020","city_id":"20"},
    {"localite_id":"272","localite_name":"BEJAOUA 2","code_postal":"2020","city_id":"20"},
    {"localite_id":"273","localite_name":"CITE 18 JANVIER","code_postal":"2020","city_id":"20"},
    {"localite_id":"274","localite_name":"CITE AFH","code_postal":"2020","city_id":"20"}
   ]},
    {"city_id":"21","city_name":"ARIANA VILLE","state_id":"2",
    "localite":[
    {"localite_id":"275","localite_name":"BORJ EL BACCOUCHE","code_postal":"2027","city_id":"21"},
    {"localite_id":"276","localite_name":"CENTRE COMMERCIAL IKRAM","code_postal":"2037","city_id":"21"},
    {"localite_id":"277","localite_name":"RESIDENCE ENNOUR ( NASER 2)","code_postal":"2037","city_id":"21"},
    {"localite_id":"278","localite_name":"RESIDENCE ENNOUR ( NASER 1)","code_postal":"2037","city_id":"21"},
    {"localite_id":"279","localite_name":"CITE ENNASR 1","code_postal":"2037","city_id":"21"},
    {"localite_id":"280","localite_name":"CITE BORJ TURKI 1","code_postal":"2058","city_id":"21"},
    {"localite_id":"281","localite_name":"NOUVELLE ARIANA","code_postal":"2080","city_id":"21"},
    {"localite_id":"282","localite_name":"RESIDENCE ENNOUR (ARIANA)","code_postal":"2080","city_id":"21"},
    {"localite_id":"283","localite_name":"CITE BELVEDERE 2","code_postal":"2091","city_id":"21"},
    {"localite_id":"284","localite_name":"CITE DU SOLEIL","code_postal":"2091","city_id":"21"},
    {"localite_id":"285","localite_name":"CITE EL INTISSAR 1","code_postal":"2091","city_id":"21"},
    {"localite_id":"286","localite_name":"CITE EL INTISSAR 2","code_postal":"2091","city_id":"21"},
    {"localite_id":"287","localite_name":"CITE JAMIL","code_postal":"2091","city_id":"21"},
    {"localite_id":"288","localite_name":"EL MENZAH 5","code_postal":"2091","city_id":"21"},
    {"localite_id":"289","localite_name":"EL MENZAH 6","code_postal":"2091","city_id":"21"},
    {"localite_id":"290","localite_name":"CITE KARIM","code_postal":"2058","city_id":"21"},
    {"localite_id":"291","localite_name":"CITE MEHRZIA 1","code_postal":"2058","city_id":"21"},
    {"localite_id":"292","localite_name":"CITE BORJ TURKI 2","code_postal":"2058","city_id":"21"},
    {"localite_id":"293","localite_name":"RESIDENCE EL OUNS","code_postal":"2058","city_id":"21"},
    {"localite_id":"294","localite_name":"RESIDENCE IBN ZEIDOUN","code_postal":"2058","city_id":"21"},
    {"localite_id":"295","localite_name":"RESIDENCE ICHBILIA","code_postal":"2058","city_id":"21"},
    {"localite_id":"296","localite_name":"CITE DE LA SANTE","code_postal":"2058","city_id":"21"},
    {"localite_id":"297","localite_name":"RESIDENCE KORTOBA","code_postal":"2058","city_id":"21"},
    {"localite_id":"298","localite_name":"CITE ESSAADA (RIADH ANDALOUS)","code_postal":"2058","city_id":"21"},
    {"localite_id":"299","localite_name":"RIADH LANDLOUS","code_postal":"2058","city_id":"21"},
    {"localite_id":"300","localite_name":"ARIANA","code_postal":"2080","city_id":"21"},
    {"localite_id":"301","localite_name":"CITE DES ROSES","code_postal":"2080","city_id":"21"},
    {"localite_id":"302","localite_name":"CITE DU JARDIN","code_postal":"2080","city_id":"21"},
    {"localite_id":"303","localite_name":"CITE DU PRINTEMPS","code_postal":"2080","city_id":"21"},
    {"localite_id":"304","localite_name":"CITE ENNOUZHA","code_postal":"2080","city_id":"21"},
    {"localite_id":"305","localite_name":"CITE ESSAADA (ARIANA)","code_postal":"2080","city_id":"21"},
    {"localite_id":"306","localite_name":"CITE JAAFAR","code_postal":"2080","city_id":"21"},
    {"localite_id":"307","localite_name":"CITE ENNASR 2","code_postal":"2037","city_id":"21"},
    {"localite_id":"308","localite_name":"EL MENZAH 7","code_postal":"2037","city_id":"21"},
    {"localite_id":"309","localite_name":"EL MENZAH 8","code_postal":"2037","city_id":"21"}
   ]},
    {"city_id":"22","city_name":"LA SOUKRA","state_id":"2",
    "localite":[
    {"localite_id":"310","localite_name":"CITE DE LA TERRE LIBRE","code_postal":"2036","city_id":"22"},
    {"localite_id":"311","localite_name":"CITE DE L'AEROPORT","code_postal":"2036","city_id":"22"},
    {"localite_id":"312","localite_name":"CITE EL AZZEF","code_postal":"2036","city_id":"22"},
    {"localite_id":"313","localite_name":"CHOTRANA 3","code_postal":"2036","city_id":"22"},
    {"localite_id":"314","localite_name":"CITE DES JUGES","code_postal":"2036","city_id":"22"},
    {"localite_id":"315","localite_name":"CITE EL BOUSTENE 1","code_postal":"2036","city_id":"22"},
    {"localite_id":"316","localite_name":"CITE EL BOUSTENE 2","code_postal":"2036","city_id":"22"},
    {"localite_id":"317","localite_name":"CITE EL HENAYA","code_postal":"2036","city_id":"22"},
    {"localite_id":"318","localite_name":"CITE EL MAID","code_postal":"2036","city_id":"22"},
    {"localite_id":"319","localite_name":"CITE ELYES","code_postal":"2036","city_id":"22"},
    {"localite_id":"320","localite_name":"CITE ETTAAMIR","code_postal":"2036","city_id":"22"},
    {"localite_id":"321","localite_name":"CITE EZZITOUN 1","code_postal":"2036","city_id":"22"},
    {"localite_id":"322","localite_name":"AEROPORT TUNIS CARTHAGE","code_postal":"2035","city_id":"22"},
    {"localite_id":"323","localite_name":"CITE BEN HESSINE","code_postal":"2036","city_id":"22"},
    {"localite_id":"324","localite_name":"CITE BOU FARES","code_postal":"2036","city_id":"22"},
    {"localite_id":"325","localite_name":"LA SOUKRA","code_postal":"2036","city_id":"22"},
    {"localite_id":"326","localite_name":"CITE CHOUCHENE","code_postal":"2036","city_id":"22"},
    {"localite_id":"327","localite_name":"CHARGUIA 1","code_postal":"2035","city_id":"22"},
    {"localite_id":"328","localite_name":"CHARGUIA 2","code_postal":"2035","city_id":"22"},
    {"localite_id":"329","localite_name":"STATION MARCHANDISES FRET","code_postal":"2035","city_id":"22"},
    {"localite_id":"330","localite_name":"CHOTRANA 1","code_postal":"2036","city_id":"22"},
    {"localite_id":"331","localite_name":"CITE CHOUACHIA","code_postal":"2036","city_id":"22"},
    {"localite_id":"332","localite_name":"CHOTRANA 2","code_postal":"2036","city_id":"22"},
    {"localite_id":"333","localite_name":"CITE ASTREE","code_postal":"2036","city_id":"22"},
    {"localite_id":"334","localite_name":"CITE BELABLA","code_postal":"2036","city_id":"22"},
    {"localite_id":"335","localite_name":"CITE EZZITOUN 2","code_postal":"2036","city_id":"22"},
    {"localite_id":"336","localite_name":"CITE EZZOUAIDIA","code_postal":"2036","city_id":"22"},
    {"localite_id":"337","localite_name":"CITE FARHAT","code_postal":"2036","city_id":"22"},
    {"localite_id":"338","localite_name":"CITE FATEH","code_postal":"2036","city_id":"22"},
    {"localite_id":"339","localite_name":"CITE FONCIERE","code_postal":"2036","city_id":"22"},
    {"localite_id":"340","localite_name":"CITE SNIT","code_postal":"2036","city_id":"22"},
    {"localite_id":"341","localite_name":"CITE TOUILIA","code_postal":"2036","city_id":"22"},
    {"localite_id":"342","localite_name":"DAR FADHAL","code_postal":"2036","city_id":"22"},
    {"localite_id":"343","localite_name":"MOSQUE ERRAOUDHA","code_postal":"2036","city_id":"22"},
    {"localite_id":"344","localite_name":"RESIDENCE 26-26","code_postal":"2036","city_id":"22"},
    {"localite_id":"345","localite_name":"RESIDENCE AHLEM","code_postal":"2036","city_id":"22"},
    {"localite_id":"346","localite_name":"RESIDENCE MERIEM","code_postal":"2036","city_id":"22"},
    {"localite_id":"347","localite_name":"SIDI FREJ","code_postal":"2036","city_id":"22"},
    {"localite_id":"348","localite_name":"SIDI SALAH","code_postal":"2036","city_id":"22"},
    {"localite_id":"349","localite_name":"SIDI SOUFIENE","code_postal":"2036","city_id":"22"},
    {"localite_id":"350","localite_name":"VILLAGE ESSAHLI","code_postal":"2036","city_id":"22"},
    {"localite_id":"351","localite_name":"BORJ LOUZIR","code_postal":"2073","city_id":"22"},
    {"localite_id":"352","localite_name":"CITE BEN KILANI","code_postal":"2073","city_id":"22"},
    {"localite_id":"353","localite_name":"CITE DE LA SANTE","code_postal":"2073","city_id":"22"},
    {"localite_id":"354","localite_name":"CITE EL BEHI LADGHEM","code_postal":"2073","city_id":"22"},
    {"localite_id":"355","localite_name":"CITE EL FETH","code_postal":"2073","city_id":"22"},
    {"localite_id":"356","localite_name":"CITE EL HANA","code_postal":"2073","city_id":"22"},
    {"localite_id":"357","localite_name":"CITE EL MANSOURA","code_postal":"2073","city_id":"22"},
    {"localite_id":"358","localite_name":"CITE EL OUROUD","code_postal":"2073","city_id":"22"},
    {"localite_id":"359","localite_name":"CITE ENNACIM","code_postal":"2073","city_id":"22"},
    {"localite_id":"360","localite_name":"CITE ENNOUZHA 3","code_postal":"2073","city_id":"22"},
    {"localite_id":"361","localite_name":"CITE ETTAAMIR 5","code_postal":"2073","city_id":"22"},
    {"localite_id":"362","localite_name":"CITE GHOUZAILA","code_postal":"2073","city_id":"22"},
    {"localite_id":"363","localite_name":"CITE HEDI NOUIRA","code_postal":"2073","city_id":"22"},
    {"localite_id":"364","localite_name":"CITE JEBIRA","code_postal":"2073","city_id":"22"},
    {"localite_id":"365","localite_name":"CITE STAR","code_postal":"2073","city_id":"22"},
    {"localite_id":"366","localite_name":"RESIDENCE EL OUNS","code_postal":"2073","city_id":"22"},
    {"localite_id":"367","localite_name":"RESIDENCE ENNESRINE","code_postal":"2073","city_id":"22"}
   ]},
    {"city_id":"23","city_name":"KALAAT LANDLOUS","state_id":"2",
    "localite":[
    {"localite_id":"368","localite_name":"PONT DE BIZERTE","code_postal":"2061","city_id":"23"},
    {"localite_id":"369","localite_name":"FERME MUSTAPHA","code_postal":"2061","city_id":"23"},
    {"localite_id":"370","localite_name":"CITE EL FEJJA","code_postal":"2022","city_id":"23"},
    {"localite_id":"371","localite_name":"CITE EL MOUROUJ","code_postal":"2022","city_id":"23"},
    {"localite_id":"372","localite_name":"CITE EL OULJA","code_postal":"2022","city_id":"23"},
    {"localite_id":"373","localite_name":"CITE ESSIBOUS","code_postal":"2022","city_id":"23"},
    {"localite_id":"374","localite_name":"CITE TAREK IBN ZIED","code_postal":"2022","city_id":"23"},
    {"localite_id":"375","localite_name":"KALAAT LANDLOUS","code_postal":"2022","city_id":"23"},
    {"localite_id":"376","localite_name":"EL NAHLI","code_postal":"2032","city_id":"23"},
    {"localite_id":"377","localite_name":"BORJ EL HADJ","code_postal":"2061","city_id":"23"},
    {"localite_id":"378","localite_name":"EL MISRA","code_postal":"2061","city_id":"23"},
    {"localite_id":"379","localite_name":"FERME HABABOU","code_postal":"2061","city_id":"23"},
    {"localite_id":"380","localite_name":"HENCHIR TOUBA","code_postal":"2061","city_id":"23"},
    {"localite_id":"381","localite_name":"CITE BIR EL ARAIES","code_postal":"2022","city_id":"23"},
    {"localite_id":"382","localite_name":"HENCHIR TOUBIAS","code_postal":"2061","city_id":"23"},
    {"localite_id":"383","localite_name":"CITE DES MARTYRS","code_postal":"2022","city_id":"23"}
   ]},
    {"city_id":"24","city_name":"ETTADHAMEN","state_id":"2",
    "localite":[
    {"localite_id":"384","localite_name":"CITE 18 JANVIER","code_postal":"2041","city_id":"24"},
    {"localite_id":"385","localite_name":"CITE BEN YERFES","code_postal":"2041","city_id":"24"},
    {"localite_id":"386","localite_name":"CITE ETTADHAMEN","code_postal":"2041","city_id":"24"},
    {"localite_id":"387","localite_name":"CITE ETTAYARENE","code_postal":"2041","city_id":"24"},
    {"localite_id":"388","localite_name":"CITE SFAR","code_postal":"2041","city_id":"24"},
    {"localite_id":"389","localite_name":"CITE EL HOUDA","code_postal":"2041","city_id":"24"},
    {"localite_id":"390","localite_name":"CITE SNIT 2","code_postal":"2041","city_id":"24"},
    {"localite_id":"391","localite_name":"CITE SNIT NAGRA","code_postal":"2041","city_id":"24"},
    {"localite_id":"392","localite_name":"CITE ENNASSER","code_postal":"2041","city_id":"24"}
   ]},
    {"city_id":"25","city_name":"MNIHLA","state_id":"2",
    "localite":[
    {"localite_id":"393","localite_name":"CITE ALI BOURGUIBA","code_postal":"2094","city_id":"25"},
    {"localite_id":"394","localite_name":"CITE DE LA REPUBLIQUE","code_postal":"2094","city_id":"25"},
    {"localite_id":"395","localite_name":"CITE EL BASSATINE1","code_postal":"2094","city_id":"25"},
    {"localite_id":"396","localite_name":"CITE EL BASSATINE2","code_postal":"2094","city_id":"25"},
    {"localite_id":"397","localite_name":"CITE EL BASSATINE3","code_postal":"2094","city_id":"25"},
    {"localite_id":"398","localite_name":"CITE EL GOUABSIA","code_postal":"2094","city_id":"25"},
    {"localite_id":"399","localite_name":"CITE EL OUARD","code_postal":"2094","city_id":"25"},
    {"localite_id":"400","localite_name":"CITE ENNASR","code_postal":"2094","city_id":"25"},
    {"localite_id":"401","localite_name":"CITE RAFAHA","code_postal":"2094","city_id":"25"},
    {"localite_id":"402","localite_name":"CITE ROUS EL HARAYEK","code_postal":"2094","city_id":"25"},
    {"localite_id":"403","localite_name":"ESSANHAJI","code_postal":"2094","city_id":"25"},
    {"localite_id":"404","localite_name":"MNIHLA","code_postal":"2094","city_id":"25"},
    {"localite_id":"405","localite_name":"RESIDENCE ENNASR","code_postal":"2094","city_id":"25"},
    {"localite_id":"406","localite_name":"CITE ESSAADA","code_postal":"2094","city_id":"25"}
   ]}
    

   ]},
   {"state_id":"3","state_name":"Ben Arous",
   "city":[
    {"city_id":"26","city_name":"EZZAHRA","state_id":"3",
    "localite":[
    {"localite_id":"407","localite_name":"CITE EL EZZ","code_postal":"2034","city_id":"26"},
    {"localite_id":"408","localite_name":"CITE HEDI KHFACHA","code_postal":"2034","city_id":"26"},
    {"localite_id":"409","localite_name":"CITE IMEN","code_postal":"2034","city_id":"26"},
    {"localite_id":"410","localite_name":"CITE INDUSTRIELLE","code_postal":"2034","city_id":"26"},
    {"localite_id":"411","localite_name":"CITE MRAD 1","code_postal":"2034","city_id":"26"},
    {"localite_id":"412","localite_name":"CITE MRAD 2","code_postal":"2034","city_id":"26"},
    {"localite_id":"413","localite_name":"CITE PANORAMA","code_postal":"2034","city_id":"26"},
    {"localite_id":"414","localite_name":"EZZAHRA","code_postal":"2034","city_id":"26"},
    {"localite_id":"415","localite_name":"CITE BEN MILED","code_postal":"2065","city_id":"26"},
    {"localite_id":"416","localite_name":"CITE EL HABIB","code_postal":"2065","city_id":"26"},
    {"localite_id":"417","localite_name":"CITE EL HOUL","code_postal":"2065","city_id":"26"},
    {"localite_id":"418","localite_name":"CITE EL WARD","code_postal":"2065","city_id":"26"},
    {"localite_id":"419","localite_name":"CITE EL YASMINE","code_postal":"2065","city_id":"26"},
    {"localite_id":"420","localite_name":"CITE ENNASR","code_postal":"2065","city_id":"26"},
    {"localite_id":"421","localite_name":"EZZAHRA EL HABIB","code_postal":"2065","city_id":"26"},
    {"localite_id":"422","localite_name":"CITE DU WAGON","code_postal":"2034","city_id":"26"},
    {"localite_id":"423","localite_name":"CITE EL AHLEM","code_postal":"2034","city_id":"26"},
    {"localite_id":"424","localite_name":"CITE EL OULIJA","code_postal":"2034","city_id":"26"},
    {"localite_id":"425","localite_name":"CITE EL OUNS","code_postal":"2034","city_id":"26"},
    {"localite_id":"426","localite_name":"CITE ENNAKHIL 1","code_postal":"2034","city_id":"26"},
    {"localite_id":"427","localite_name":"CITE ENNAKHIL 2","code_postal":"2034","city_id":"26"},
    {"localite_id":"428","localite_name":"CITE ERRACHID","code_postal":"2034","city_id":"26"},
    {"localite_id":"429","localite_name":"CITE ERRIADH","code_postal":"2034","city_id":"26"},
    {"localite_id":"430","localite_name":"CITE EL AKACIA","code_postal":"2034","city_id":"26"},
    {"localite_id":"431","localite_name":"CITE EL AMEN","code_postal":"2034","city_id":"26"},
    {"localite_id":"432","localite_name":"CITE 18 JANVIER","code_postal":"2034","city_id":"26"},
    {"localite_id":"433","localite_name":"CITE BORJ LOUZIR","code_postal":"2034","city_id":"26"},
    {"localite_id":"434","localite_name":"CITE DU PORT","code_postal":"2034","city_id":"26"}
   ]},
    {"city_id":"27","city_name":"MOHAMADIA","state_id":"3",
    "localite":[
    {"localite_id":"435","localite_name":"CITE DE LA CARRIERE 2","code_postal":"1145","city_id":"27"},
    {"localite_id":"436","localite_name":"CITE DU LYCEE","code_postal":"1145","city_id":"27"},
    {"localite_id":"437","localite_name":"CITE EL AMEN","code_postal":"1145","city_id":"27"},
    {"localite_id":"438","localite_name":"CITE EL ATIQ","code_postal":"1145","city_id":"27"},
    {"localite_id":"439","localite_name":"CITE EL BACCOUCH","code_postal":"1145","city_id":"27"},
    {"localite_id":"440","localite_name":"CITE EL BASSATINE","code_postal":"1145","city_id":"27"},
    {"localite_id":"441","localite_name":"CITE EL ELMI 1","code_postal":"1145","city_id":"27"},
    {"localite_id":"442","localite_name":"CITE ENNOUZHA","code_postal":"1145","city_id":"27"},
    {"localite_id":"443","localite_name":"CITE ERRIADH","code_postal":"1145","city_id":"27"},
    {"localite_id":"444","localite_name":"CITE ESSAADA 1","code_postal":"1145","city_id":"27"},
    {"localite_id":"445","localite_name":"CITE ESSAADA 2","code_postal":"1145","city_id":"27"},
    {"localite_id":"446","localite_name":"CITE ESSAADA 3","code_postal":"1145","city_id":"27"},
    {"localite_id":"447","localite_name":"CITE ESSALEM","code_postal":"1145","city_id":"27"},
    {"localite_id":"448","localite_name":"CITE ETTAYARI","code_postal":"1145","city_id":"27"},
    {"localite_id":"449","localite_name":"CITE ETTOUAHRIA","code_postal":"1145","city_id":"27"},
    {"localite_id":"450","localite_name":"CITE EZZITOUN 2","code_postal":"1145","city_id":"27"},
    {"localite_id":"451","localite_name":"CITE BOU AKROUCHA","code_postal":"1145","city_id":"27"},
    {"localite_id":"452","localite_name":"CITE BOURBAI","code_postal":"1145","city_id":"27"},
    {"localite_id":"453","localite_name":"CITE CEBBALET CHIKH","code_postal":"1145","city_id":"27"},
    {"localite_id":"454","localite_name":"CITE CHAABANE","code_postal":"1145","city_id":"27"},
    {"localite_id":"455","localite_name":"CITE CHEBBI","code_postal":"1145","city_id":"27"},
    {"localite_id":"456","localite_name":"CITE DE LA CARRIERE 1","code_postal":"1145","city_id":"27"},
    {"localite_id":"457","localite_name":"CITE OUDHNA","code_postal":"1145","city_id":"27"},
    {"localite_id":"458","localite_name":"RESIDENCE ETTAOUFIK","code_postal":"1145","city_id":"27"},
    {"localite_id":"459","localite_name":"CITE TAIEB MHIRI","code_postal":"1145","city_id":"27"},
    {"localite_id":"460","localite_name":"CITE EL ELMI 2","code_postal":"1145","city_id":"27"},
    {"localite_id":"461","localite_name":"CITE EL HADDAD","code_postal":"1145","city_id":"27"},
    {"localite_id":"462","localite_name":"CITE EL HANA","code_postal":"1145","city_id":"27"},
    {"localite_id":"463","localite_name":"CITE EL KSAR","code_postal":"1145","city_id":"27"},
    {"localite_id":"464","localite_name":"CITE EL OMRI 1","code_postal":"1145","city_id":"27"},
    {"localite_id":"465","localite_name":"CITE EL OMRI 2","code_postal":"1145","city_id":"27"},
    {"localite_id":"466","localite_name":"CITE ELLOUATA","code_postal":"1145","city_id":"27"},
    {"localite_id":"467","localite_name":"CITE ENNACIM 1","code_postal":"1145","city_id":"27"},
    {"localite_id":"468","localite_name":"CITE ENNACIM 2","code_postal":"1145","city_id":"27"},
    {"localite_id":"469","localite_name":"CITE ENNASR","code_postal":"1145","city_id":"27"},
    {"localite_id":"470","localite_name":"CITE FATTOUMA BOURGUIBA","code_postal":"1145","city_id":"27"},
    {"localite_id":"471","localite_name":"CITE HACHED 1","code_postal":"1145","city_id":"27"},
    {"localite_id":"472","localite_name":"CITE HACHED 2","code_postal":"1145","city_id":"27"},
    {"localite_id":"473","localite_name":"CITE JAOUHARA","code_postal":"1145","city_id":"27"},
    {"localite_id":"474","localite_name":"CITE JARDINS","code_postal":"1145","city_id":"27"},
    {"localite_id":"475","localite_name":"CITE MONGI SLIM 1","code_postal":"1145","city_id":"27"},
    {"localite_id":"476","localite_name":"CITE MONGI SLIM 2","code_postal":"1145","city_id":"27"},
    {"localite_id":"477","localite_name":"MOHAMADIA","code_postal":"1145","city_id":"27"},
    {"localite_id":"478","localite_name":"RESIDENCE EL FERDAOUS","code_postal":"1145","city_id":"27"},
    {"localite_id":"479","localite_name":"CITE TNICH","code_postal":"1145","city_id":"27"},
    {"localite_id":"480","localite_name":"RESIDENCE EL MOUSTAKBEL","code_postal":"1145","city_id":"27"},
    {"localite_id":"481","localite_name":"IMMEUBLES DE L'INTERIEUR","code_postal":"1145","city_id":"27"},
    {"localite_id":"482","localite_name":"RESIDENCE EL OUNS","code_postal":"1145","city_id":"27"}
   ]},
    {"city_id":"28","city_name":"EL MOUROUJ","state_id":"3",
    "localite":[
    {"localite_id":"483","localite_name":"RESIDENCE IBN KHALDOUN","code_postal":"2074","city_id":"28"},
    {"localite_id":"484","localite_name":"RESIDENCE IBN ZEIDOUN","code_postal":"2074","city_id":"28"},
    {"localite_id":"485","localite_name":"RESIDENCE INES","code_postal":"2074","city_id":"28"},
    {"localite_id":"486","localite_name":"RESIDENCE JINENE EL MOUROUJ","code_postal":"2074","city_id":"28"},
    {"localite_id":"487","localite_name":"RESIDENCE MERIEM","code_postal":"2074","city_id":"28"},
    {"localite_id":"488","localite_name":"RESIDENCE SIDI BOU SAID","code_postal":"2074","city_id":"28"},
    {"localite_id":"489","localite_name":"RESIDENCE TYPE","code_postal":"2074","city_id":"28"},
    {"localite_id":"490","localite_name":"RESIDENCE ZAHRET EL MOUROUJ","code_postal":"2074","city_id":"28"},
    {"localite_id":"491","localite_name":"CITE IBN JAZZAR 2","code_postal":"2074","city_id":"28"},
    {"localite_id":"492","localite_name":"CITE IBN MANDHOUR","code_postal":"2074","city_id":"28"},
    {"localite_id":"493","localite_name":"CITE JARDINS","code_postal":"2074","city_id":"28"},
    {"localite_id":"494","localite_name":"CITE MONCEF BEY","code_postal":"2074","city_id":"28"},
    {"localite_id":"495","localite_name":"CITE TAHER HADDAD","code_postal":"2074","city_id":"28"},
    {"localite_id":"496","localite_name":"CITE YARGOULA","code_postal":"2074","city_id":"28"},
    {"localite_id":"497","localite_name":"EL ALIA 1","code_postal":"2074","city_id":"28"},
    {"localite_id":"498","localite_name":"EL ALIA 2","code_postal":"2074","city_id":"28"},
    {"localite_id":"499","localite_name":"EL ALIA 3","code_postal":"2074","city_id":"28"},
    {"localite_id":"500","localite_name":"EL MOUROUJ","code_postal":"2074","city_id":"28"},
    {"localite_id":"501","localite_name":"LA BELLE RESIDENCE","code_postal":"2074","city_id":"28"},
    {"localite_id":"502","localite_name":"RESIDENCE CHEBBI","code_postal":"2074","city_id":"28"},
    {"localite_id":"503","localite_name":"RESIDENCE CHOUROUK 1","code_postal":"2074","city_id":"28"},
    {"localite_id":"504","localite_name":"CITE AZZA 2","code_postal":"2074","city_id":"28"},
    {"localite_id":"505","localite_name":"CITE COMMERCIALE ABOU SOFIANE","code_postal":"2074","city_id":"28"},
    {"localite_id":"506","localite_name":"CITE COMMERCIALE BOUKHRISS","code_postal":"2074","city_id":"28"},
    {"localite_id":"507","localite_name":"CITE DES OASIS","code_postal":"2074","city_id":"28"},
    {"localite_id":"508","localite_name":"CITE EL BASSATINE","code_postal":"2074","city_id":"28"},
    {"localite_id":"509","localite_name":"CITE ERRACHID 2","code_postal":"2074","city_id":"28"},
    {"localite_id":"510","localite_name":"CITE ERRAOUDHA","code_postal":"2074","city_id":"28"},
    {"localite_id":"511","localite_name":"CITE ERRIADH","code_postal":"2074","city_id":"28"},
    {"localite_id":"512","localite_name":"CITE ERRIADH 2","code_postal":"2074","city_id":"28"},
    {"localite_id":"513","localite_name":"CITE ESSALEM","code_postal":"2074","city_id":"28"},
    {"localite_id":"514","localite_name":"CITE AZZA 1","code_postal":"2074","city_id":"28"},
    {"localite_id":"515","localite_name":"CITE ALYSSA 2","code_postal":"2074","city_id":"28"},
    {"localite_id":"516","localite_name":"CITE ALYSSA 1","code_postal":"2074","city_id":"28"},
    {"localite_id":"517","localite_name":"RESIDENCE CHOUROUK 2","code_postal":"2074","city_id":"28"},
    {"localite_id":"518","localite_name":"RESIDENCE CHOUROUK 3","code_postal":"2074","city_id":"28"},
    {"localite_id":"519","localite_name":"RESIDENCE DE LA VERDURE","code_postal":"2074","city_id":"28"},
    {"localite_id":"520","localite_name":"RESIDENCE DE L'HORIZON","code_postal":"2074","city_id":"28"},
    {"localite_id":"521","localite_name":"RESIDENCE DU PRINTEMPS","code_postal":"2074","city_id":"28"},
    {"localite_id":"522","localite_name":"RESIDENCE EL FOLL","code_postal":"2074","city_id":"28"},
    {"localite_id":"523","localite_name":"RESIDENCE EL KHALIL","code_postal":"2074","city_id":"28"},
    {"localite_id":"524","localite_name":"RESIDENCE EL MOURJENE","code_postal":"2074","city_id":"28"},
    {"localite_id":"525","localite_name":"RESIDENCE EL OUARD","code_postal":"2074","city_id":"28"},
    {"localite_id":"526","localite_name":"RESIDENCE EL WAFA","code_postal":"2074","city_id":"28"},
    {"localite_id":"527","localite_name":"RESIDENCE ENNACIM","code_postal":"2074","city_id":"28"},
    {"localite_id":"528","localite_name":"RESIDENCE ENNAOURES","code_postal":"2074","city_id":"28"},
    {"localite_id":"529","localite_name":"RESIDENCE ENNESRINE","code_postal":"2074","city_id":"28"},
    {"localite_id":"530","localite_name":"RESIDENCE ERRABOUA","code_postal":"2074","city_id":"28"},
    {"localite_id":"531","localite_name":"RESIDENCE ESSAAD","code_postal":"2074","city_id":"28"},
    {"localite_id":"532","localite_name":"RESIDENCE ESSAADA","code_postal":"2074","city_id":"28"},
    {"localite_id":"533","localite_name":"RESIDENCE ESSRAYA","code_postal":"2074","city_id":"28"},
    {"localite_id":"534","localite_name":"CITE EL MOUROUJ 3 BIS","code_postal":"2074","city_id":"28"},
    {"localite_id":"535","localite_name":"CITE EL WIFAK","code_postal":"2074","city_id":"28"},
    {"localite_id":"536","localite_name":"CITE ENNAKHIL","code_postal":"2074","city_id":"28"},
    {"localite_id":"537","localite_name":"CITE ENNARJES 1","code_postal":"2074","city_id":"28"},
    {"localite_id":"538","localite_name":"CITE ENNARJES 2","code_postal":"2074","city_id":"28"},
    {"localite_id":"539","localite_name":"CITE EL BOCHRA","code_postal":"2074","city_id":"28"},
    {"localite_id":"540","localite_name":"CITE EL FAOUZ","code_postal":"2074","city_id":"28"},
    {"localite_id":"541","localite_name":"CITE EL FOLL","code_postal":"2074","city_id":"28"},
    {"localite_id":"542","localite_name":"CITE ENNASR 1","code_postal":"2074","city_id":"28"},
    {"localite_id":"543","localite_name":"CITE ENNASR 2","code_postal":"2074","city_id":"28"},
    {"localite_id":"544","localite_name":"CITE ERRACHID 1","code_postal":"2074","city_id":"28"},
    {"localite_id":"545","localite_name":"BIR EL KASSAA","code_postal":"2059","city_id":"28"}
   ]},
    {"city_id":"29","city_name":"RADES","state_id":"3",
    "localite":[
    {"localite_id":"546","localite_name":"CITE MOHAMED ALI","code_postal":"2040","city_id":"29"},
    {"localite_id":"547","localite_name":"CITE RADES 2","code_postal":"2040","city_id":"29"},
    {"localite_id":"548","localite_name":"CITE SFAXI","code_postal":"2040","city_id":"29"},
    {"localite_id":"549","localite_name":"CITE SNCFT","code_postal":"2040","city_id":"29"},
    {"localite_id":"550","localite_name":"CITE TAIEB MHIRI 1","code_postal":"2040","city_id":"29"},
    {"localite_id":"551","localite_name":"CITE TAIEB MHIRI 2","code_postal":"2040","city_id":"29"},
    {"localite_id":"552","localite_name":"CITE TAIEB MHIRI 3","code_postal":"2040","city_id":"29"},
    {"localite_id":"553","localite_name":"RADES","code_postal":"2040","city_id":"29"},
    {"localite_id":"554","localite_name":"RADES PLAGE","code_postal":"2040","city_id":"29"},
    {"localite_id":"555","localite_name":"CITE EL EZZ","code_postal":"2098","city_id":"29"},
    {"localite_id":"556","localite_name":"CITE NOUVELLE","code_postal":"2098","city_id":"29"},
    {"localite_id":"557","localite_name":"CITE 20 MARS","code_postal":"1125","city_id":"29"},
    {"localite_id":"558","localite_name":"CITE ENNOUR","code_postal":"1125","city_id":"29"},
    {"localite_id":"559","localite_name":"RADES SALINE","code_postal":"1125","city_id":"29"},
    {"localite_id":"560","localite_name":"ZONE INDUSTRIELLE 1","code_postal":"1125","city_id":"29"},
    {"localite_id":"561","localite_name":"ZONE INDUSTRIELLE 2","code_postal":"1125","city_id":"29"},
    {"localite_id":"562","localite_name":"ZONE PETROLIERE","code_postal":"1125","city_id":"29"},
    {"localite_id":"563","localite_name":"CITE SNIT","code_postal":"2018","city_id":"29"},
    {"localite_id":"564","localite_name":"DECOUPPAGE HAJ ALEYA","code_postal":"2018","city_id":"29"},
    {"localite_id":"565","localite_name":"RADES 7 NOVEMBRE","code_postal":"2018","city_id":"29"},
    {"localite_id":"566","localite_name":"VILLAGE MEDITERRANEE","code_postal":"2018","city_id":"29"},
    {"localite_id":"567","localite_name":"VILLE SPORTIVE","code_postal":"2018","city_id":"29"},
    {"localite_id":"568","localite_name":"CHOUCHET RADES","code_postal":"2040","city_id":"29"},
    {"localite_id":"569","localite_name":"RADES EL MRAH","code_postal":"2098","city_id":"29"},
    {"localite_id":"570","localite_name":"RADES FORET","code_postal":"2098","city_id":"29"},
    {"localite_id":"571","localite_name":"RADES MEDINA","code_postal":"2098","city_id":"29"},
    {"localite_id":"572","localite_name":"RADES MELIANE","code_postal":"2098","city_id":"29"},
    {"localite_id":"573","localite_name":"RADES MONGIL","code_postal":"2098","city_id":"29"}
   ]},
    {"city_id":"30","city_name":"FOUCHANA","state_id":"3",
    "localite":[
    {"localite_id":"574","localite_name":"FOUCHANA","code_postal":"2082","city_id":"30"},
    {"localite_id":"575","localite_name":"MEGHIRA CENTRE","code_postal":"2082","city_id":"30"},
    {"localite_id":"576","localite_name":"MEGHIRA INZEL","code_postal":"2082","city_id":"30"},
    {"localite_id":"577","localite_name":"ZONE INDUSTRIELLE EL MEGHIRA","code_postal":"2082","city_id":"30"},
    {"localite_id":"578","localite_name":"BIR ZENDALA","code_postal":"1135","city_id":"30"},
    {"localite_id":"579","localite_name":"CITE BRIM","code_postal":"2082","city_id":"30"},
    {"localite_id":"580","localite_name":"CITE CHEBBI","code_postal":"2082","city_id":"30"},
    {"localite_id":"581","localite_name":"CITE EL AMEL","code_postal":"2082","city_id":"30"},
    {"localite_id":"582","localite_name":"CITE EL AMEL 2","code_postal":"2082","city_id":"30"},
    {"localite_id":"583","localite_name":"CITE EL BANEFSEJ","code_postal":"2082","city_id":"30"},
    {"localite_id":"584","localite_name":"CITE EL FATEH","code_postal":"2082","city_id":"30"},
    {"localite_id":"585","localite_name":"CITE EL HANA","code_postal":"2082","city_id":"30"},
    {"localite_id":"586","localite_name":"CITE EL HIDHAB","code_postal":"2082","city_id":"30"},
    {"localite_id":"587","localite_name":"CITE EL IZDIHAR","code_postal":"2082","city_id":"30"},
    {"localite_id":"588","localite_name":"CITE EL MISK","code_postal":"2082","city_id":"30"},
    {"localite_id":"589","localite_name":"CITE EL MOUSTAKBEL","code_postal":"2082","city_id":"30"},
    {"localite_id":"590","localite_name":"CITE EL WARD","code_postal":"2082","city_id":"30"},
    {"localite_id":"591","localite_name":"CITE EL WIFAK","code_postal":"2082","city_id":"30"},
    {"localite_id":"592","localite_name":"CITE ENNASR","code_postal":"2082","city_id":"30"},
    {"localite_id":"593","localite_name":"CITE ENNOUZHA","code_postal":"2082","city_id":"30"},
    {"localite_id":"594","localite_name":"CITE ERRIADH","code_postal":"2082","city_id":"30"},
    {"localite_id":"595","localite_name":"CITE EZZITOUN 1","code_postal":"2082","city_id":"30"},
    {"localite_id":"596","localite_name":"CITE KHOUAJA","code_postal":"2082","city_id":"30"},
    {"localite_id":"597","localite_name":"CITE SNIT","code_postal":"2082","city_id":"30"},
    {"localite_id":"598","localite_name":"CITE TRABELSI","code_postal":"2082","city_id":"30"},
    {"localite_id":"599","localite_name":"EL MENAYCHIA","code_postal":"2082","city_id":"30"},
    {"localite_id":"600","localite_name":"CHEBEDDA","code_postal":"1135","city_id":"30"},
    {"localite_id":"601","localite_name":"DOUAR EL HOUCH","code_postal":"1135","city_id":"30"},
    {"localite_id":"602","localite_name":"NAASSEN","code_postal":"1135","city_id":"30"},
    {"localite_id":"603","localite_name":"CITE 20 MARS","code_postal":"2082","city_id":"30"}
   ]},
    {"city_id":"31","city_name":"HAMMAM CHATT","state_id":"3",
    "localite":[
    {"localite_id":"604","localite_name":"BIR EL BEY","code_postal":"2055","city_id":"31"},
    {"localite_id":"605","localite_name":"BORJ CEDRIA","code_postal":"2084","city_id":"31"},
    {"localite_id":"606","localite_name":"HAMMAM CHATT","code_postal":"1164","city_id":"31"}
   ]},
    {"city_id":"32","city_name":"HAMMAM LIF","state_id":"3",
    "localite":[
    {"localite_id":"607","localite_name":"CITE 7 NOVEMBRE","code_postal":"2050","city_id":"32"},
    {"localite_id":"608","localite_name":"CITE CASINO","code_postal":"2050","city_id":"32"},
    {"localite_id":"609","localite_name":"CITE DAR EL BEY","code_postal":"2050","city_id":"32"},
    {"localite_id":"610","localite_name":"CITE DE LA MUNICIPALITE","code_postal":"2050","city_id":"32"},
    {"localite_id":"611","localite_name":"CITE DES INSTITUTEURS","code_postal":"2050","city_id":"32"},
    {"localite_id":"612","localite_name":"CITE DES OUVRIERS","code_postal":"2050","city_id":"32"},
    {"localite_id":"613","localite_name":"CITE ENNAHDHA","code_postal":"2050","city_id":"32"},
    {"localite_id":"614","localite_name":"CITE ENNASR","code_postal":"2050","city_id":"32"},
    {"localite_id":"615","localite_name":"CITE ENNOUZHA","code_postal":"2050","city_id":"32"},
    {"localite_id":"616","localite_name":"CITE ESSANAOUBRIA","code_postal":"2050","city_id":"32"},
    {"localite_id":"617","localite_name":"CITE HACHED","code_postal":"2050","city_id":"32"},
    {"localite_id":"618","localite_name":"CITE KORTOBA","code_postal":"2050","city_id":"32"},
    {"localite_id":"619","localite_name":"CITE MONGI SLIM","code_postal":"2050","city_id":"32"},
    {"localite_id":"620","localite_name":"CITE OFFICE CEREALE","code_postal":"2050","city_id":"32"},
    {"localite_id":"621","localite_name":"CITE THERMALE","code_postal":"2050","city_id":"32"},
    {"localite_id":"622","localite_name":"HAMMAM LIF","code_postal":"2050","city_id":"32"},
    {"localite_id":"623","localite_name":"BOU KORNINE","code_postal":"2093","city_id":"32"},
    {"localite_id":"624","localite_name":"CITE BOU KORNINE 2","code_postal":"2093","city_id":"32"},
    {"localite_id":"625","localite_name":"CITE BOUSSOUFFARA","code_postal":"2099","city_id":"32"}
   ]},
    {"city_id":"33","city_name":"MEGRINE","state_id":"3",
    "localite":[
    {"localite_id":"626","localite_name":"CITE FOUNIZ","code_postal":"2014","city_id":"33"},
    {"localite_id":"627","localite_name":"MEGRINE RIADH","code_postal":"2014","city_id":"33"},
    {"localite_id":"628","localite_name":"SAINT GOBIN","code_postal":"2014","city_id":"33"},
    {"localite_id":"629","localite_name":"ZONE INDUSTRIELLE SAINT GOBIN","code_postal":"2014","city_id":"33"},
    {"localite_id":"630","localite_name":"MEGRINE CHAKER","code_postal":"2024","city_id":"33"},
    {"localite_id":"631","localite_name":"MEGRINE JAOUHARA","code_postal":"2024","city_id":"33"},
    {"localite_id":"632","localite_name":"MEGRINE","code_postal":"2033","city_id":"33"},
    {"localite_id":"633","localite_name":"MEGRINE COTEAU","code_postal":"2033","city_id":"33"},
    {"localite_id":"634","localite_name":"MEGRINE SUPERIEUR","code_postal":"2033","city_id":"33"},
    {"localite_id":"635","localite_name":"SIDI REZIG","code_postal":"2033","city_id":"33"}
   ]},
    {"city_id":"34","city_name":"MORNAG","state_id":"3",
    "localite":[
    {"localite_id":"636","localite_name":"ERRISSALA","code_postal":"2044","city_id":"34"},
    {"localite_id":"637","localite_name":"AIN REGAD","code_postal":"2054","city_id":"34"},
    {"localite_id":"638","localite_name":"BARROUTA","code_postal":"2054","city_id":"34"},
    {"localite_id":"639","localite_name":"BIR JEDID","code_postal":"2054","city_id":"34"},
    {"localite_id":"640","localite_name":"EL GOUNNA","code_postal":"2054","city_id":"34"},
    {"localite_id":"641","localite_name":"HENCHIR KHARROUBA","code_postal":"2054","city_id":"34"},
    {"localite_id":"642","localite_name":"KHELIDIA","code_postal":"2054","city_id":"34"},
    {"localite_id":"643","localite_name":"KOUENJEL","code_postal":"2054","city_id":"34"},
    {"localite_id":"644","localite_name":"SIDI MESSAOUD","code_postal":"2054","city_id":"34"},
    {"localite_id":"645","localite_name":"SIDI OTHMAN LANDARI","code_postal":"2054","city_id":"34"},
    {"localite_id":"646","localite_name":"SONDAGE","code_postal":"2054","city_id":"34"},
    {"localite_id":"647","localite_name":"CITE AIR NOUVELLE","code_postal":"2064","city_id":"34"},
    {"localite_id":"648","localite_name":"CITE ETTAYARANE","code_postal":"2064","city_id":"34"},
    {"localite_id":"649","localite_name":"EL ABEBSA","code_postal":"2064","city_id":"34"},
    {"localite_id":"650","localite_name":"EL FENDRIA","code_postal":"2064","city_id":"34"},
    {"localite_id":"651","localite_name":"HENCHIR BOUCHTA","code_postal":"2090","city_id":"34"},
    {"localite_id":"652","localite_name":"HENCHIR EL GHOBAR","code_postal":"2090","city_id":"34"},
    {"localite_id":"653","localite_name":"HENCHIR KHELIL","code_postal":"2090","city_id":"34"},
    {"localite_id":"654","localite_name":"HUILERIE BAYREM","code_postal":"2090","city_id":"34"},
    {"localite_id":"655","localite_name":"MORNAG","code_postal":"2090","city_id":"34"},
    {"localite_id":"656","localite_name":"OUZRA","code_postal":"2090","city_id":"34"},
    {"localite_id":"657","localite_name":"SIDI SAAD","code_postal":"2090","city_id":"34"},
    {"localite_id":"658","localite_name":"TARHOUNA 1","code_postal":"2090","city_id":"34"},
    {"localite_id":"659","localite_name":"TARHOUNA 2","code_postal":"2090","city_id":"34"},
    {"localite_id":"660","localite_name":"ZAOUIT MORNAG","code_postal":"2090","city_id":"34"},
    {"localite_id":"661","localite_name":"EL KABOUTIE","code_postal":"2064","city_id":"34"},
    {"localite_id":"662","localite_name":"BORJ ESSOUFI","code_postal":"2090","city_id":"34"},
    {"localite_id":"663","localite_name":"JEBEL ERSASS","code_postal":"2064","city_id":"34"},
    {"localite_id":"664","localite_name":"JOURJOU","code_postal":"2064","city_id":"34"},
    {"localite_id":"665","localite_name":"MIRGHNA","code_postal":"2064","city_id":"34"},
    {"localite_id":"666","localite_name":"SIDI SALEM EL GARCI","code_postal":"2064","city_id":"34"},
    {"localite_id":"667","localite_name":"AHMED ZAIED","code_postal":"2090","city_id":"34"},
    {"localite_id":"668","localite_name":"BEN NOUIJI","code_postal":"2090","city_id":"34"},
    {"localite_id":"669","localite_name":"BOU JERDGA","code_postal":"2090","city_id":"34"},
    {"localite_id":"670","localite_name":"EL ALELGUA","code_postal":"2090","city_id":"34"},
    {"localite_id":"671","localite_name":"EL ARABA","code_postal":"2090","city_id":"34"},
    {"localite_id":"672","localite_name":"EL HAOUAMED","code_postal":"2090","city_id":"34"},
    {"localite_id":"673","localite_name":"EL KSIBI","code_postal":"2090","city_id":"34"},
    {"localite_id":"674","localite_name":"ETTIAYRA","code_postal":"2090","city_id":"34"},
    {"localite_id":"675","localite_name":"FERME MARQUEE","code_postal":"2090","city_id":"34"},
    {"localite_id":"676","localite_name":"CHALA","code_postal":"2090","city_id":"34"},
    {"localite_id":"677","localite_name":"CHAMINE","code_postal":"2090","city_id":"34"},
    {"localite_id":"678","localite_name":"CITE ENNASR","code_postal":"2090","city_id":"34"},
    {"localite_id":"679","localite_name":"DOUAR LA PORTE","code_postal":"2090","city_id":"34"},
    {"localite_id":"680","localite_name":"DOUAR SALEM","code_postal":"2074","city_id":"34"}
   ]},
    {"city_id":"35","city_name":"BOU MHEL EL BASSATINE","state_id":"3",
    "localite":[
    {"localite_id":"681","localite_name":"CITE EL WAFA","code_postal":"2097","city_id":"35"},
    {"localite_id":"682","localite_name":"CITE RABIAA","code_postal":"2097","city_id":"35"},
    {"localite_id":"683","localite_name":"CITE PLEIN AIR","code_postal":"2097","city_id":"35"},
    {"localite_id":"684","localite_name":"CITE ENNACIM 1","code_postal":"2097","city_id":"35"},
    {"localite_id":"685","localite_name":"CITE ENNACIM 2","code_postal":"2097","city_id":"35"},
    {"localite_id":"686","localite_name":"CITE ESSAFA","code_postal":"2097","city_id":"35"},
    {"localite_id":"687","localite_name":"CITE ESSALEM","code_postal":"2097","city_id":"35"},
    {"localite_id":"688","localite_name":"CITE HADRICH","code_postal":"2097","city_id":"35"},
    {"localite_id":"689","localite_name":"CITE JLASSI","code_postal":"2097","city_id":"35"},
    {"localite_id":"690","localite_name":"CITE MEZRIOU","code_postal":"2097","city_id":"35"},
    {"localite_id":"691","localite_name":"CITE SPROLS","code_postal":"2097","city_id":"35"},
    {"localite_id":"692","localite_name":"CITE SNIT","code_postal":"2097","city_id":"35"},
    {"localite_id":"693","localite_name":"CITE BEN GAMRA","code_postal":"2097","city_id":"35"},
    {"localite_id":"694","localite_name":"CITE EL MAHRAJENE 2","code_postal":"2097","city_id":"35"},
    {"localite_id":"695","localite_name":"CITE BEN JOUD","code_postal":"2097","city_id":"35"},
    {"localite_id":"696","localite_name":"CITE BOU MHEL","code_postal":"2097","city_id":"35"},
    {"localite_id":"697","localite_name":"CITE BOUTOURIA","code_postal":"2097","city_id":"35"},
    {"localite_id":"698","localite_name":"CITE CHEBIL","code_postal":"2097","city_id":"35"},
    {"localite_id":"699","localite_name":"CITE DE L'INTERIEUR","code_postal":"2097","city_id":"35"},
    {"localite_id":"700","localite_name":"CITE DES JUGES","code_postal":"2097","city_id":"35"},
    {"localite_id":"701","localite_name":"CITE DIAR TOUNES","code_postal":"2097","city_id":"35"},
    {"localite_id":"702","localite_name":"CITE EL AHMADI","code_postal":"2097","city_id":"35"},
    {"localite_id":"703","localite_name":"CITE EL AMEN","code_postal":"2097","city_id":"35"},
    {"localite_id":"704","localite_name":"CITE EL ASSIL","code_postal":"2097","city_id":"35"},
    {"localite_id":"705","localite_name":"CITE EL BASSATINE ANCIEN","code_postal":"2097","city_id":"35"},
    {"localite_id":"706","localite_name":"CITE EL FERCHICHI","code_postal":"2097","city_id":"35"},
    {"localite_id":"707","localite_name":"CITE EL IKLIL","code_postal":"2097","city_id":"35"},
    {"localite_id":"708","localite_name":"CITE EL KENANI","code_postal":"2097","city_id":"35"},
    {"localite_id":"709","localite_name":"CITE EL KHALIJ","code_postal":"2097","city_id":"35"},
    {"localite_id":"710","localite_name":"CITE EL KHALLEDI","code_postal":"2097","city_id":"35"},
    {"localite_id":"711","localite_name":"CITE EL MOUNA","code_postal":"2097","city_id":"35"},
    {"localite_id":"712","localite_name":"CITE EL MAHRAJENE 1","code_postal":"2097","city_id":"35"},
    {"localite_id":"713","localite_name":"BOU MHEL","code_postal":"2097","city_id":"35"},
    {"localite_id":"714","localite_name":"RESIDENCE DU MEDITERRANE","code_postal":"2097","city_id":"35"},
    {"localite_id":"715","localite_name":"RESIDENCE SIRINE","code_postal":"2097","city_id":"35"},
    {"localite_id":"716","localite_name":"RESIDENCE EL IMARA","code_postal":"2097","city_id":"35"},
    {"localite_id":"717","localite_name":"RESIDENCE ENNACIM","code_postal":"2097","city_id":"35"},
    {"localite_id":"718","localite_name":"RESIDENCE EZZOUHOUR","code_postal":"2097","city_id":"35"},
    {"localite_id":"719","localite_name":"RESIDENCE SARRA","code_postal":"2097","city_id":"35"}
   ]},
    {"city_id":"36","city_name":"BEN AROUS","state_id":"3",
    "localite":[
    {"localite_id":"720","localite_name":"BEN AROUS SUD","code_postal":"2043","city_id":"36"},
    {"localite_id":"721","localite_name":"BEN AROUS","code_postal":"2013","city_id":"36"}
   ]},
    {"city_id":"262","city_name":"NOUVELLE MEDINA","state_id":"3",
    "localite":[
    {"localite_id":"720","localite_name":"EL YASMINETTE","code_postal":"2096","city_id":"262"},
    {"localite_id":"721","localite_name":"NOUVELLE MEDINA","code_postal":"2063","city_id":"262"}
   ]}

   ]},
   {"state_id":"4","state_name":"Binzart",
   "city":[
    {"city_id":"37","city_name":"MENZEL BOURGUIBA","state_id":"4",
    "localite":[
    {"localite_id":"722","localite_name":"JOUAOUDA","code_postal":"7042","city_id":"37"},
    {"localite_id":"723","localite_name":"CITE BEN ALEYA","code_postal":"7050","city_id":"37"},
    {"localite_id":"724","localite_name":"CITE DE LA DOUANE","code_postal":"7050","city_id":"37"},
    {"localite_id":"725","localite_name":"CITE LA RUCHE","code_postal":"7050","city_id":"37"},
    {"localite_id":"726","localite_name":"CITE NOUVELLE","code_postal":"7050","city_id":"37"},
    {"localite_id":"727","localite_name":"CITE SIDI YAHYA","code_postal":"7050","city_id":"37"},
    {"localite_id":"728","localite_name":"MENZEL BOURGUIBA","code_postal":"7050","city_id":"37"},
    {"localite_id":"729","localite_name":"MENZEL BOURGUIBA ENNAJAH","code_postal":"7072","city_id":"37"}
   ]},
    {"city_id":"38","city_name":"UTIQUE","state_id":"4",
    "localite":[
    {"localite_id":"730","localite_name":"CITE EJJAMAA","code_postal":"7060","city_id":"37"},
    {"localite_id":"731","localite_name":"CITE EZZAYATINE","code_postal":"7060","city_id":"37"},
    {"localite_id":"732","localite_name":"CITE HOUMET SOUK","code_postal":"7060","city_id":"37"},
    {"localite_id":"733","localite_name":"GHORNATA","code_postal":"7060","city_id":"37"},
    {"localite_id":"734","localite_name":"LAHOUIDH","code_postal":"7060","city_id":"37"},
    {"localite_id":"735","localite_name":"UTIQUE","code_postal":"7060","city_id":"37"},
    {"localite_id":"736","localite_name":"UTIQUE NOUVELLE","code_postal":"7063","city_id":"37"},
    {"localite_id":"737","localite_name":"AIN GHELAL","code_postal":"7013","city_id":"37"},
    {"localite_id":"738","localite_name":"AIN SMARA","code_postal":"7013","city_id":"37"},
    {"localite_id":"739","localite_name":"EL BESBASSIA","code_postal":"7013","city_id":"37"},
    {"localite_id":"740","localite_name":"EL BHALIL CHARGUI","code_postal":"7013","city_id":"37"},
    {"localite_id":"741","localite_name":"EL BRIJ","code_postal":"7013","city_id":"37"},
    {"localite_id":"742","localite_name":"EL FEJJA","code_postal":"7013","city_id":"37"},
    {"localite_id":"743","localite_name":"DEGMA","code_postal":"7023","city_id":"37"},
    {"localite_id":"744","localite_name":"EL MABTOUH","code_postal":"7023","city_id":"37"},
    {"localite_id":"745","localite_name":"ESSAKAK","code_postal":"7023","city_id":"37"},
    {"localite_id":"746","localite_name":"SIDI OTHMAN","code_postal":"7023","city_id":"37"},
    {"localite_id":"747","localite_name":"BACH HAMBA","code_postal":"7043","city_id":"37"},
    {"localite_id":"748","localite_name":"CITE BOURGUIBA","code_postal":"7060","city_id":"37"},
    {"localite_id":"749","localite_name":"CITE CHATEAU D EAU","code_postal":"7060","city_id":"37"},
    {"localite_id":"750","localite_name":"CITE DE LA LAITERIE","code_postal":"7060","city_id":"37"},
    {"localite_id":"751","localite_name":"CITE DE LA POSTE","code_postal":"7060","city_id":"37"}
   ]},
    {"city_id":"39","city_name":"MENZEL JEMIL","state_id":"4"},
    {"city_id":"40","city_name":"BIZERTE NORD","state_id":"4"},
    {"city_id":"41","city_name":"BIZERTE SUD","state_id":"4"},
    {"city_id":"42","city_name":"EL ALIA","state_id":"4"},
    {"city_id":"43","city_name":"HAMMAM LIF","state_id":"4"},
    {"city_id":"44","city_name":"SEJNANE","state_id":"4"},
    {"city_id":"45","city_name":"GHAR EL MELH","state_id":"4"},
    {"city_id":"46","city_name":"GHEZALA","state_id":"4"},
    {"city_id":"47","city_name":"JARZOUNA","state_id":"4"},
    {"city_id":"48","city_name":"JOUMINE","state_id":"4"},
    {"city_id":"49","city_name":"MATEUR","state_id":"4"},
    {"city_id":"50","city_name":"RAS JEBEL","state_id":"4"},
    {"city_id":"51","city_name":"TINJA","state_id":"4"}

   ]},
   {"state_id":"5","state_name":"Manouba",
   "city":[
   {"city_id":"52","city_name":"BORJ EL AMRI","state_id":"5"},
   {"city_id":"53","city_name":"JEDAIDA","state_id":"5"},
   {"city_id":"54","city_name":"OUED ELLIL","state_id":"5"},
   {"city_id":"55","city_name":"TEBOURBA","state_id":"5"},
   {"city_id":"56","city_name":"EL BATTAN","state_id":"5"},
   {"city_id":"57","city_name":"MANNOUBA","state_id":"5"},
   {"city_id":"58","city_name":"MORNAGUIA","state_id":"5"},
   {"city_id":"59","city_name":"DOUAR HICHER","state_id":"5"}
   
   ]},
   {"state_id":"6","state_name":"Nabeul",
   "city":[
    {"city_id":"60","city_name":"KORBA","state_id":"6"},
    {"city_id":"61","city_name":"SOLIMAN","state_id":"6"},
    {"city_id":"62","city_name":"TAKELSA","state_id":"6"},
    {"city_id":"63","city_name":"MENZEL BOUZELFA","state_id":"6"},
    {"city_id":"64","city_name":"MENZEL TEMIME","state_id":"6"},
    {"city_id":"65","city_name":"NABEUL","state_id":"6"},
    {"city_id":"66","city_name":"BENI KHIAR","state_id":"6"},
    {"city_id":"67","city_name":"BENI KHALLED","state_id":"6"},
    {"city_id":"68","city_name":"HAMMAMET","state_id":"6"},
    {"city_id":"69","city_name":"EL HAOUARIA","state_id":"6"},
    {"city_id":"70","city_name":"KELIBIA","state_id":"6"},
    {"city_id":"71","city_name":"GROMBALIA","state_id":"6"},
    {"city_id":"72","city_name":"EL MIDA","state_id":"6"},
    {"city_id":"73","city_name":"BOU ARGOUB","state_id":"6"},
    {"city_id":"74","city_name":"DAR CHAABANE ELFEHRI","state_id":"6"},
    {"city_id":"75","city_name":"HAMMAM EL GHEZAZ","state_id":"6"}
    ]},
   {"state_id":"7","state_name":"Zaghouan",
   "city":[ 
    {"city_id":"76","city_name":"ENNADHOUR","state_id":"7"},
    {"city_id":"77","city_name":"EL FAHS","state_id":"7"},
    {"city_id":"78","city_name":"BIR MCHERGA","state_id":"7"},
    {"city_id":"79","city_name":"ZAGHOUAN","state_id":"7"},
    {"city_id":"80","city_name":"HAMMAM ZRIBA","state_id":"7"},
    {"city_id":"81","city_name":"SAOUEF","state_id":"7"},
    {"city_id":"82","city_name":"EL MIDA","state_id":"7"}
    ]},
   {"state_id":"8","state_name":"Kebili",
   "city":[
   
    {"city_id":"83","city_name":"SOUK EL AHAD","state_id":"8"},
    {"city_id":"84","city_name":"KEBILI SUD","state_id":"8"},
    {"city_id":"85","city_name":"KEBILI NORD","state_id":"8"},
    {"city_id":"86","city_name":"DOUZ","state_id":"8"},
    {"city_id":"87","city_name":"EL FAOUAR","state_id":"8"}
    ]},
   {"state_id":"9","state_name":"Bja",
   "city":[
   
    {"city_id":"88","city_name":"BEJA NORD","state_id":"9"},
    {"city_id":"89","city_name":"NEFZA","state_id":"9"},
    {"city_id":"90","city_name":"GOUBELLAT","state_id":"9"},
    {"city_id":"91","city_name":"MEJEZ EL BAB","state_id":"9"},
    {"city_id":"92","city_name":"AMDOUN","state_id":"9"},
    {"city_id":"93","city_name":"TESTOUR","state_id":"9"},
    {"city_id":"94","city_name":"THIBAR","state_id":"9"},
    {"city_id":"95","city_name":"BEJA SUD","state_id":"9"}
    ]},
   {"state_id":"10","state_name":"Jendouba",
   "city":[
    {"city_id":"96","city_name":"FERNANA","state_id":"10"},
    {"city_id":"97","city_name":"TABARKA","state_id":"10"},
    {"city_id":"98","city_name":"JENDOUBA","state_id":"10"},
    {"city_id":"99","city_name":"JENDOUBA NORD","state_id":"10"},
    {"city_id":"100","city_name":"AIN DRAHAM","state_id":"10"},
    {"city_id":"101","city_name":"OUED MLIZ","state_id":"10"},
    {"city_id":"102","city_name":"BOU SALEM","state_id":"10"},
    {"city_id":"103","city_name":"BALTA BOU AOUENE","state_id":"10"}
    

   ]},
   {"state_id":"11","state_name":"Kef",
   "city":[
    
    {"city_id":"104","city_name":"TAJEROUINE","state_id":"11"},
    {"city_id":"105","city_name":"TOUIREF","state_id":"11"},
    {"city_id":"106","city_name":"NEBEUR","state_id":"11"},
    {"city_id":"107","city_name":"SAKIET SIDI YOUSSEF","state_id":"11"},
    {"city_id":"108","city_name":"LE SERS","state_id":"11"},
    {"city_id":"109","city_name":"EL KSOUR","state_id":"11"},
    {"city_id":"110","city_name":"LE KEF EST","state_id":"11"},
    {"city_id":"111","city_name":"DAHMANI","state_id":"11"},
    {"city_id":"112","city_name":"KALAAT SINANE","state_id":"11"},
    {"city_id":"113","city_name":"JERISSA","state_id":"11"},
    {"city_id":"114","city_name":"KALAA EL KHASBA","state_id":"11"},
    {"city_id":"115","city_name":"LE KEF OUEST","state_id":"11"}
  ]},
   {"state_id":"12","state_name":"Siliana",
   "city":[ 
    {"city_id":"116","city_name":"SILIANA SUD","state_id":"12"},
    {"city_id":"117","city_name":"SIDI BOU ROUIS","state_id":"12"},
    {"city_id":"118","city_name":"SILIANA NORD","state_id":"12"},
    {"city_id":"119","city_name":"GAAFOUR","state_id":"12"},
    {"city_id":"120","city_name":"KESRA","state_id":"12"},
    {"city_id":"121","city_name":"LE KRIB","state_id":"12"},
    {"city_id":"122","city_name":"BOU ARADA","state_id":"12"},
    {"city_id":"123","city_name":"BARGOU","state_id":"12"},
    {"city_id":"124","city_name":"MAKTHAR","state_id":"12"},
    {"city_id":"125","city_name":"ROHIA","state_id":"12"},
    {"city_id":"126","city_name":"EL AROUSSA","state_id":"12"}
    ]},
   {"state_id":"13","state_name":"Sousse",
   "city":[ 
    {"city_id":"127","city_name":"SIDI BOU ALI","state_id":"13"},
    {"city_id":"128","city_name":"SIDI EL HENI","state_id":"13"},
    {"city_id":"129","city_name":"SOUSSE JAOUHARA","state_id":"13"},
    {"city_id":"130","city_name":"SOUSSE RIADH","state_id":"13"},
    {"city_id":"131","city_name":"SOUSSE VILLE","state_id":"13"},
    {"city_id":"132","city_name":"BOU FICHA","state_id":"13"},
    {"city_id":"133","city_name":"AKOUDA","state_id":"13"},
    {"city_id":"134","city_name":"HAMMAM SOUSSE","state_id":"13"},
    {"city_id":"135","city_name":"KALAA ESSGHIRA","state_id":"13"},
    {"city_id":"136","city_name":"KONDAR","state_id":"13"},
    {"city_id":"137","city_name":"MSAKEN","state_id":"13"},
    {"city_id":"138","city_name":"ENFIDHA","state_id":"13"},
    {"city_id":"139","city_name":"HERGLA","state_id":"13"},
    {"city_id":"140","city_name":"KALAA EL KEBIRA","state_id":"13"},
    {"city_id":"141","city_name":"SOUSSE","state_id":"13"}
    ]},
   {"state_id":"14","state_name":"Monastir",
   "city":[
    {"city_id":"142","city_name":"SAYADA LAMTA BOU HAJAR","state_id":"14"},
    {"city_id":"143","city_name":"KSIBET EL MEDIOUNI","state_id":"14"},
    {"city_id":"144","city_name":"KSAR HELAL","state_id":"14"},
    {"city_id":"145","city_name":"JEMMAL","state_id":"14"},
    {"city_id":"146","city_name":"SAHLINE","state_id":"14"},
    {"city_id":"147","city_name":"MONASTIR","state_id":"14"},
    {"city_id":"148","city_name":"MOKNINE","state_id":"14"},
    {"city_id":"149","city_name":"OUERDANINE","state_id":"14"},
    {"city_id":"150","city_name":"TEBOULBA","state_id":"14"},
    {"city_id":"151","city_name":"ZERAMDINE","state_id":"14"},
    {"city_id":"152","city_name":"BEKALTA","state_id":"14"},
    {"city_id":"153","city_name":"BEMBLA","state_id":"14"},
    {"city_id":"154","city_name":"BENI HASSEN","state_id":"14"}
 ]},
   {"state_id":"15","state_name":"Mahdia",
   "city":[
    
    {"city_id":"155","city_name":"MELLOULECH","state_id":"15"},
    {"city_id":"156","city_name":"SIDI ALOUENE","state_id":"15"},
    {"city_id":"157","city_name":"MAHDIA","state_id":"15"},
    {"city_id":"158","city_name":"SOUASSI","state_id":"15"},
    {"city_id":"159","city_name":"OULED CHAMAKH","state_id":"15"},
    {"city_id":"160","city_name":"BOU MERDES","state_id":"15"},
    {"city_id":"161","city_name":"CHORBANE","state_id":"15"},
    {"city_id":"162","city_name":"KSOUR ESSAF","state_id":"15"},
    {"city_id":"163","city_name":"HBIRA","state_id":"15"},
    {"city_id":"164","city_name":"LA CHEBBA","state_id":"15"},
    {"city_id":"165","city_name":"EL JEM","state_id":"15"}
 ]},
   {"state_id":"16","state_name":"Sfax",
   "city":[
    {"city_id":"166","city_name":"EL HENCHA","state_id":"16"},
    {"city_id":"167","city_name":"ESSKHIRA","state_id":"16"},
    {"city_id":"168","city_name":"GHRAIBA","state_id":"16"},
    {"city_id":"169","city_name":"EL AMRA","state_id":"16"},
    {"city_id":"170","city_name":"BIR ALI BEN KHELIFA","state_id":"16"},
    {"city_id":"171","city_name":"AGAREB","state_id":"16"},
    {"city_id":"172","city_name":"SFAX VILLE","state_id":"16"},
    {"city_id":"173","city_name":"SAKIET EDDAIER","state_id":"16"},
    {"city_id":"174","city_name":"MAHRAS","state_id":"16"},
    {"city_id":"175","city_name":"MENZEL CHAKER","state_id":"16"},
    {"city_id":"176","city_name":"SFAX EST","state_id":"16"},
    {"city_id":"177","city_name":"SFAX SUD","state_id":"16"},
    {"city_id":"178","city_name":"JEBENIANA","state_id":"16"},
    {"city_id":"179","city_name":"KERKENAH","state_id":"16"},
    {"city_id":"180","city_name":"SAKIET EZZIT","state_id":"16"}
 ]},
   {"state_id":"17","state_name":"Kairouan",
   "city":[
    {"city_id":"181","city_name":"SBIKHA","state_id":"17"},
    {"city_id":"182","city_name":"KAIROUAN SUD","state_id":"17"},
    {"city_id":"183","city_name":"OUESLATIA","state_id":"17"},
    {"city_id":"184","city_name":"NASRALLAH","state_id":"17"},
    {"city_id":"185","city_name":"KAIROUAN NORD","state_id":"17"},
    {"city_id":"186","city_name":"EL ALA","state_id":"17"},
    {"city_id":"187","city_name":"HAJEB EL AYOUN","state_id":"17"},
    {"city_id":"188","city_name":"CHEBIKA","state_id":"17"},
    {"city_id":"189","city_name":"HAFFOUZ","state_id":"17"},
    {"city_id":"190","city_name":"CHERARDA","state_id":"17"},
    {"city_id":"191","city_name":"BOU HAJLA","state_id":"17"}
 ]},
   {"state_id":"18","state_name":"Kasserine",
   "city":[
    {"city_id":"192","city_name":"HAIDRA","state_id":"18"},
    {"city_id":"193","city_name":"SBEITLA","state_id":"18"},
    {"city_id":"194","city_name":"MEJEL BEL ABBES","state_id":"18"},
    {"city_id":"195","city_name":"KASSERINE NORD","state_id":"18"},
    {"city_id":"196","city_name":"EL AYOUN","state_id":"18"},
    {"city_id":"197","city_name":"EZZOUHOUR","state_id":"18"},
    {"city_id":"198","city_name":"FERIANA","state_id":"18"},
    {"city_id":"199","city_name":"FOUSSANA","state_id":"18"},
    {"city_id":"200","city_name":"HASSI EL FRID","state_id":"18"},
    {"city_id":"201","city_name":"JEDILIANE","state_id":"18"},
    {"city_id":"202","city_name":"KASSERINE SUD","state_id":"18"},
    {"city_id":"203","city_name":"SBIBA","state_id":"18"},
    {"city_id":"204","city_name":"THALA","state_id":"18"}
 ]},
   {"state_id":"19","state_name":"Sidi Bouzid",
   "city":[
    {"city_id":"205","city_name":"BEN OUN","state_id":"19"},
    {"city_id":"206","city_name":"BIR EL HAFFEY","state_id":"19"},
    {"city_id":"207","city_name":"JILMA","state_id":"19"},
    {"city_id":"208","city_name":"CEBBALA","state_id":"19"},
    {"city_id":"209","city_name":"OULED HAFFOUZ","state_id":"19"},
    {"city_id":"210","city_name":"MEZZOUNA","state_id":"19"},
    {"city_id":"211","city_name":"REGUEB","state_id":"19"},
    {"city_id":"212","city_name":"SIDI BOUZID OUEST","state_id":"19"},
    {"city_id":"213","city_name":"SOUK JEDID","state_id":"19"},
    {"city_id":"214","city_name":"SIDI BOUZID EST","state_id":"19"},
    {"city_id":"215","city_name":"MAKNASSY","state_id":"19"},
    {"city_id":"216","city_name":"MENZEL BOUZAIENE","state_id":"19"}
 ]},
   {"state_id":"20","state_name":"Gabs",
   "city":[
    {"city_id":"217","city_name":"EL METOUIA","state_id":"20"},
    {"city_id":"218","city_name":"GABES MEDINA","state_id":"20"},
    {"city_id":"219","city_name":"GABES OUEST","state_id":"20"},
    {"city_id":"220","city_name":"GABES SUD","state_id":"20"},
    {"city_id":"221","city_name":"EL HAMMA","state_id":"20"},
    {"city_id":"222","city_name":"NOUVELLE MATMATA","state_id":"20"},
    {"city_id":"223","city_name":"MARETH","state_id":"20"},
    {"city_id":"224","city_name":"GHANNOUCHE","state_id":"20"},
    {"city_id":"225","city_name":"MATMATA","state_id":"20"},
    {"city_id":"226","city_name":"MENZEL HABIB","state_id":"20"}
 ]},
   {"state_id":"21","state_name":"Mednine",
   "city":[
    {"city_id":"227","city_name":"HOUMET ESSOUK","state_id":"21"},
    {"city_id":"228","city_name":"MEDENINE SUD","state_id":"21"},
    {"city_id":"229","city_name":"BENI KHEDACHE","state_id":"21"},
    {"city_id":"230","city_name":"SIDI MAKHLOUF","state_id":"21"},
    {"city_id":"231","city_name":"MIDOUN","state_id":"21"},
    {"city_id":"232","city_name":"ZARZIS","state_id":"21"},
    {"city_id":"233","city_name":"MEDENINE NORD","state_id":"21"},
    {"city_id":"234","city_name":"BEN GUERDANE","state_id":"21"},
    {"city_id":"235","city_name":"AJIM","state_id":"21"}
 ]},
   {"state_id":"22","state_name":"Tataouine",
   "city":[
    {"city_id":"236","city_name":"TATAOUINE SUD","state_id":"22"},
    {"city_id":"237","city_name":"BIR LAHMAR","state_id":"22"},
    {"city_id":"238","city_name":"DHEHIBA","state_id":"22"},
    {"city_id":"239","city_name":"GHOMRASSEN","state_id":"22"},
    {"city_id":"240","city_name":"TATAOUINE NORD","state_id":"22"},
    {"city_id":"241","city_name":"REMADA","state_id":"22"},
    {"city_id":"242","city_name":"SMAR","state_id":"22"}
 ]},
   {"state_id":"23","state_name":"Gafsa",
   "city":[
      {"city_id":"243","city_name":"BELKHIR","state_id":"23"},
      {"city_id":"244","city_name":"EL GUETTAR","state_id":"23"},
      {"city_id":"245","city_name":"EL KSAR","state_id":"23"},
      {"city_id":"246","city_name":"EL MDHILLA","state_id":"23"},
      {"city_id":"247","city_name":"SNED","state_id":"23"},
      {"city_id":"248","city_name":"MOULARES","state_id":"23"},
      {"city_id":"249","city_name":"REDEYEF","state_id":"23"},
      {"city_id":"250","city_name":"SIDI AICH","state_id":"23"},
      {"city_id":"251","city_name":"GAFSA SUD","state_id":"23"},
      {"city_id":"252","city_name":"METLAOUI","state_id":"23"},
      {"city_id":"253","city_name":"GAFSA NORD","state_id":"23"}
      
 ]},
   {"state_id":"24","state_name":"Tozeur",
   "city":[
      {"city_id":"254","city_name":"DEGUECHE","state_id":"24"},
      {"city_id":"255","city_name":"TOZEUR","state_id":"24"},
      {"city_id":"256","city_name":"HEZOUA","state_id":"24"},
      {"city_id":"257","city_name":"NEFTA","state_id":"24"},
      {"city_id":"258","city_name":"TAMEGHZA","state_id":"24"}
      
      
 ]}
  
       
]